{
"type": "FeatureCollection",
"name": "7-15_done_fixed",
"crs": { "type": "name", "properties": { "name": "urn:ogc:def:crs:OGC:1.3:CRS84" } },
"features": [
{"type":"Feature","properties":{"fid":1,"region":"Northern Great Basin","section":"Lake Section","source":"Tiehm & Nachlinger, Nevada Vascular Plants: An Annotated Checklist of the State's Botanical Diversity, Fig. 1"},"geometry":{"type":"Polygon","coordinates":[[[-117.469134814068283,41.99493268138076],[-117.468871411005836,41.994515244475927],[-117.368054048930432,41.963439806167656],[-117.321333807968657,41.917713086256178],[-117.294285247411835,41.888430778142698],[-117.274613567006853,41.829825878292191],[-117.26969564690566,41.789503857900122],[-117.291826287361232,41.749156459197948],[-117.290790819742142,41.726291251638628],[-117.3295194405394,41.797549310963156],[-117.339847072752022,41.836034230077857],[-117.375993785496121,41.839881450015945],[-117.412140498240234,41.809097214913493],[-117.45603293514381,41.805248144846111],[-117.474106291515852,41.776372748469996],[-117.505089188153661,41.749410643854823],[-117.497343463994227,41.69930810882807],[-117.476688199569026,41.680027500723881],[-117.388903325761888,41.670385029751401],[-117.375993785496121,41.604777920914991],[-117.381157601602453,41.568086038501896],[-117.427631946559117,41.531373305791369],[-117.474106291515852,41.577743818659812],[-117.520580636472573,41.593193263399137],[-117.539944946871202,41.600916599468441],[-117.560600211296403,41.577743818659812],[-117.560600211296403,41.577743818659812],[-117.589001199881054,41.550698395562037],[-117.589001199881054,41.47529789060772],[-117.609656464306283,41.41336522227477],[-117.612238372359428,41.388188192147915],[-117.63289363678463,41.382376723138563],[-117.643221268997237,41.330050130798682],[-117.669040349528743,41.324233468424055],[-117.715514694485464,41.351373450043418],[-117.733588050857492,41.372689787247268],[-117.756825223335866,41.423046098119187],[-117.759407131388997,41.461755170605215],[-117.73875186696381,41.529440479191891],[-117.73875186696381,41.548766146464949],[-117.759407131388997,41.562290677318636],[-117.761989039442142,41.608639011297861],[-117.741333775016955,41.680027500723881],[-117.725842326698029,41.708946245846953],[-117.643221268997237,41.772521712884114],[-117.614820280412573,41.822567139000981],[-117.604492648199979,41.853344898433249],[-117.589001199881054,41.899483781793094],[-117.565764027402693,41.955190486852537],[-117.565764027402693,41.980146666807059],[-117.607074556253124,41.985904396864889],[-117.638057452890948,41.96862964472313],[-117.723260418644884,41.959030535478995],[-117.787808119973633,41.922540731776635],[-117.808463384398891,41.807172708786332],[-117.826536740770919,41.782148868302066],[-117.878174901833944,41.762893112336016],[-117.885920625993407,41.732071879949515],[-117.92723115484381,41.722437210457727],[-117.981451223959979,41.627940997127283],[-117.978869315906834,41.556494796334441],[-117.986615040066269,41.531373305791369],[-117.999524580332036,41.504308478537098],[-118.022761752810382,41.465624807838914],[-118.033089385023004,41.426918044412496],[-118.062781327634212,41.428853930976231],[-118.065363235687357,41.481101047461934],[-118.062781327634212,41.554562720497266],[-118.093764224272007,41.641448949833219],[-118.145402385335004,41.760967218815615],[-118.18929482223858,41.828339096370399],[-118.235769167195301,41.911013297835517],[-118.287407328258297,41.912934681418513],[-118.310644500736672,41.884107855069409],[-118.295153052417774,41.785999325820491],[-118.259006339673661,41.600916599468441],[-118.261588247726806,41.525574652750535],[-118.287407328258297,41.490771820832101],[-118.336463581268205,41.506242055818717],[-118.336463581268205,41.57967520141505],[-118.372610294012304,41.624081062118371],[-118.434576087287923,41.647237205810477],[-118.47846852419147,41.697380308057589],[-118.493959972510353,41.760967218815615],[-118.545598133573407,41.797549310963156],[-118.56625339799858,41.839881450015945],[-118.584326754370665,41.843728438672315],[-118.594654386583215,41.797549310963156],[-118.603691064769293,41.728218185537436],[-118.606272972822467,41.614430213619627],[-118.59852724866299,41.583537793645441],[-118.56754435202518,41.568086038501896],[-118.572708168131498,41.527507594844785],[-118.626928237247668,41.4694942141453],[-118.668238766098071,41.4694942141453],[-118.714713111054792,41.508175575358415],[-118.768933180170933,41.502374843514033],[-118.823153249287131,41.44627431247465],[-118.88770095061588,41.407556004140112],[-118.867045686190679,41.287382548860222],[-118.926429571413138,41.236921229012403],[-118.949666743891498,41.203906209127361],[-118.939339111678905,41.155324436421523],[-118.952248651944643,41.113515293347795],[-118.952248651944643,41.101842870029017],[-118.923847663359993,41.099897264412483],[-118.93675720362576,41.049291289813283],[-118.944502927785166,41.025921547829277],[-118.929011479466297,41.010337110569388],[-118.947084835838339,40.981106353070842],[-118.947084835838339,40.949912593032607],[-119.003886813007639,40.94211184918958],[-119.019378261326565,40.955762546183941],[-119.02196016937971,41.066813151102401],[-118.993559180795074,41.0940601017506],[-118.993559180795074,41.125185641645267],[-119.122654583452587,41.253422488820092],[-119.139436985798071,41.267978963321767],[-119.167837974382707,41.308719830180443],[-119.185911330754791,41.291262573750174],[-119.180747514648502,41.240804253264109],[-119.162674158276445,41.180591455518794],[-119.162674158276445,41.110597382046841],[-119.157510342170141,41.072652734273206],[-119.173001790489025,41.008388796657677],[-119.20398468712682,40.944062121538806],[-119.229803767658311,40.910899659555945],[-119.265950480402424,40.912850853299915],[-119.276278112615046,40.969410421009513],[-119.294351468987131,41.008388796657677],[-119.333080089784389,41.000594964914086],[-119.374390618634763,40.953812619394697],[-119.382136342794226,40.936260686595908],[-119.449265952176162,40.932359623584048],[-119.451847860229307,40.906997099321408],[-119.413119239432049,40.871863693125555],[-119.397627791113166,40.827920704958316],[-119.395045883060021,40.808381134402097],[-119.392463975006848,40.767329303617316],[-119.345989630050113,40.751683835981474],[-119.309842917306014,40.759507030102256],[-119.299515285093392,40.737991031175511],[-119.333080089784389,40.71451109304094],[-119.369226802528487,40.716468070949965],[-119.392463975006848,40.657733713016931],[-119.407955423325731,40.67144302644342],[-119.436356411910424,40.712554057607619],[-119.490576481026565,40.720381854192702],[-119.503486021292332,40.759507030102256],[-119.521559377664374,40.759507030102256],[-119.539632734036431,40.728208730360421],[-119.586107078993138,40.728208730360421],[-119.601598527312063,40.687107362531904],[-119.640327148109336,40.685149521820549],[-119.666146228640827,40.64206247583499],[-119.690674355145774,40.628347124424728],[-119.716493435677279,40.636184813088882],[-119.750058240368205,40.657733713016931],[-119.770713504793434,40.681233667852247],[-119.791368769218636,40.681233667852247],[-119.799114493378084,40.640103312421026],[-119.804278309484346,40.632266083755169],[-119.858498378600544,40.61854871989464],[-119.863662194706862,40.573457546858172],[-119.861080286653717,40.54403387756831],[-119.915300355769858,40.526373468917889],[-119.946283252407653,40.524410913951137],[-119.943701344354523,40.502819016729596],[-119.933373712141943,40.489075098548945],[-119.951447068513971,40.469436046156758],[-119.904972723557265,40.430140707591249],[-119.933373712141943,40.359351206704147],[-119.943701344354523,40.325896965167267],[-119.917882263823003,40.270759700078138],[-119.884317459132049,40.227406001792033],[-119.88173555107889,40.193886398702681],[-119.904972723557265,40.193886398702681],[-119.923046079929321,40.223463379541251],[-119.960466042429218,40.268943564777942],[-119.970699086199247,40.266684439387276],[-119.972108521148726,40.263995732735943],[-119.983384000744564,40.260769143686161],[-119.986202870643524,40.253239837447857],[-119.996068915289882,40.253777672821201],[-120.005230242461522,40.261844690468422],[-120.010867982259441,40.269373039166972],[-120.015801004582613,40.267759892123856],[-120.017915157006854,40.417617927250667],[-120.010927536819509,40.752326266152771],[-119.999662757506457,41.989870800579546],[-117.469134814068283,41.99493268138076]]]}},
{"type":"Feature","properties":{"fid":2,"region":"Northern Great Basin","section":"Owyhee Uplands Section","source":"Tiehm & Nachlinger, Nevada Vascular Plants: An Annotated Checklist of the State's Botanical Diversity, Fig. 1"},"geometry":{"type":"Polygon","coordinates":[[[-115.637376968526084,41.58502831414426],[-115.668918350602638,41.580815309471319],[-115.719609857511415,41.612827250822292],[-115.737633504412287,41.643981515195094],[-115.745518849931415,41.68774043739635],[-115.768756022409789,41.710873699880878],[-115.807484643207033,41.691596559020816],[-115.833303723738581,41.641448949833219],[-115.859122804270072,41.610569469839241],[-115.879778068695245,41.568086038501896],[-115.895269517014185,41.52170859532243],[-115.924961459625436,41.494639726016892],[-115.883650930775019,41.372689787247268],[-115.891396654934468,41.300961626440355],[-115.98692725290104,41.254393021391067],[-116.025655873698298,41.242745678879423],[-116.074712126708164,41.267978963321767],[-116.095367391133365,41.295142367891366],[-116.038565413964051,41.349435254979809],[-116.043729230070355,41.473363389520514],[-116.051474954229789,41.506242055818717],[-116.030819689804559,41.595124184062328],[-116.007582517326242,41.647237205810477],[-116.005000609273068,41.68774043739635],[-116.069548310601817,41.67424219148814],[-116.097949299186524,41.641448949833219],[-116.139259828036899,41.57194932383954],[-116.159915092462128,41.57194932383954],[-116.214135161578298,41.597055046961927],[-116.312247667598044,41.583537793645441],[-116.381959185033068,41.531373305791369],[-116.458125472601054,41.498507400245479],[-116.538164622248729,41.494639726016892],[-116.582057059152277,41.473363389520514],[-116.646604760481054,41.498507400245479],[-116.677587657118821,41.502374843514033],[-116.703406737650369,41.423046098119187],[-116.716316277916107,41.351373450043418],[-116.780863979244884,41.34555869174612],[-116.837665956414199,41.415301512882976],[-116.863485036945704,41.510109037155708],[-116.868648853052022,41.517842306911383],[-116.89188602553034,41.583537793645441],[-116.946106094646538,41.575812378145173],[-117.027436198320771,41.546833839615481],[-117.208169762041337,41.562290677318636],[-117.239152658679146,41.662670012903298],[-117.257226015051202,41.722437210457727],[-117.290790819742142,41.726291251638628],[-117.291826287361232,41.749156459197948],[-117.26969564690566,41.789503857900122],[-117.274613567006853,41.829825878292191],[-117.294285247411835,41.888430778142698],[-117.321333807968657,41.917713086256178],[-117.368054048930432,41.963439806167656],[-117.468871411005836,41.994515244475927],[-117.469134814068283,41.99493268138076],[-114.977260900781147,41.99991724152104],[-114.982893290437673,41.973123208332147],[-114.991905113888109,41.950506971769151],[-114.998663981475943,41.926206517494023],[-115.005422849063763,41.913633683647411],[-115.022320018033369,41.895189046506886],[-115.052734922178615,41.878416570885371],[-115.082023348392539,41.879255299245024],[-115.105679384949966,41.858283787927256],[-115.112438252537814,41.844858410295309],[-115.121450075988236,41.8238756169143],[-115.125955987713468,41.814641008662463],[-115.138347244957814,41.807924093527049],[-115.149612024270866,41.786089255210122],[-115.17101510496569,41.766767620491187],[-115.186785796003932,41.749961467584107],[-115.209315354630064,41.729788274793897],[-115.212694788423988,41.71381333631102],[-115.222833089805718,41.695311077720412],[-115.265639251195338,41.659132200016565],[-115.279156986370992,41.634300045487507],[-115.302813022928419,41.603983433488963],[-115.345619184318011,41.593032265730308],[-115.424472639509389,41.595559623225327],[-115.447002198135493,41.602298759402863],[-115.453761065723342,41.625038148320883],[-115.461646411242469,41.66123617996616],[-115.476290624349446,41.69741387524067],[-115.485302447799896,41.710870151316271],[-115.507832006425986,41.708347314062969],[-115.506705528494692,41.671334326837396],[-115.502199616769488,41.651136449299486],[-115.529235087120796,41.609037191842361],[-115.525855653326886,41.595559623225327],[-115.508038999540346,41.575490809399689],[-115.517003938403192,41.558243196716958],[-115.574635688235716,41.508390898466125],[-115.610495443687128,41.50455451496876],[-115.614337560342619,41.511268036912462],[-115.63098673251649,41.53044569208771],[-115.62842532141282,41.554409768632283],[-115.6245832047573,41.557284861011148],[-115.619460382549974,41.588902435936426],[-115.637376968526084,41.58502831414426]]]}},
{"type":"Feature","properties":{"fid":3,"region":"Central Great Basin","section":"Lahontan Section","source":"Tiehm & Nachlinger, Nevada Vascular Plants: An Annotated Checklist of the State's Botanical Diversity, Fig. 1"},"geometry":{"type":"Polygon","coordinates":[[[-120.015801004582613,40.267759892123856],[-120.013056971755233,40.074288079305042],[-119.958680727951631,40.085635115503358],[-119.874644714800624,40.115884633250559],[-119.840041650561957,40.119664877325484],[-119.837570003116369,40.191449579136624],[-119.778250464421546,40.178231783475496],[-119.723874220617958,40.085635115503358],[-119.706572688498625,40.042127875136558],[-119.649724797249434,40.011845583651755],[-119.625008322793235,39.928499982574394],[-119.590405258554583,39.907647705576849],[-119.545915604533477,39.898167298944685],[-119.494011008175477,39.845052783678973],[-119.395145110350754,39.772903028192417],[-119.39020181545952,39.72349378506587],[-119.392673462905165,39.688315634410948],[-119.372900283340215,39.606480927390592],[-119.316052392090981,39.593149832307574],[-119.264147795733024,39.595054431561877],[-119.232016378939974,39.55504685150823],[-119.110905654104712,39.543611873615191],[-119.071359294974826,39.509295633482338],[-119.081245884757294,39.457789480853442],[-119.115848948995932,39.440612287308646],[-119.25920450084179,39.415793305214088],[-119.469294533719292,39.371861146425793],[-119.476709476056172,39.33363678597172],[-119.42974817458942,39.316429001937053],[-119.392673462905165,39.27626104304565],[-119.343240513992768,39.228412000635416],[-119.323467334427846,39.169033850904604],[-119.325938981873435,39.134533189177368],[-119.363013693557747,39.100015615321617],[-119.358070398666499,39.076994505885374],[-119.343240513992768,39.063562055591873],[-119.348183808884031,38.979070985322949],[-119.412446642470087,38.971384972702417],[-119.417389937361307,38.946399670976305],[-119.414918289915704,38.875239447738146],[-119.42974817458942,38.863693230466076],[-119.417389937361307,38.819415359306092],[-119.409974995024442,38.790523644697373],[-119.402560052687633,38.750055564632653],[-119.335825571655917,38.724992393008243],[-119.34076886654718,38.665190881886417],[-119.266619443178641,38.647819789409553],[-119.23943132127684,38.659400985819325],[-119.224601436603123,38.709564531505947],[-119.143037070897705,38.70763581466862],[-119.088660827094145,38.694133339993606],[-119.049114467964259,38.711493196311871],[-119.0861891796485,38.798229247442023],[-119.041699525627394,38.832894149797063],[-118.95519186503077,38.857919418562517],[-118.937890332911437,38.882935883975826],[-118.950248570139536,38.938710113482017],[-118.932947038020231,38.977149560373483],[-118.895872326335919,38.984834947338335],[-118.843967729977976,38.936787593800013],[-118.819251255521792,38.886783789493315],[-118.767346659163806,38.759692903970333],[-118.774761601500657,38.657470916440573],[-118.754988421935707,38.603407860580482],[-118.69566888324087,38.541571603563],[-118.666009113893466,38.473877272484437],[-118.649943405496984,38.449685305925648],[-118.595567161693396,38.426453385192062],[-118.53871927044419,38.42064423688587],[-118.501644558759921,38.4380702801013],[-118.516474443433623,38.503864041138904],[-118.464569847075666,38.532871611902394],[-118.464569847075666,38.56186749193737],[-118.546134212781055,38.581191582438613],[-118.578265629574062,38.610167971906918],[-118.605453751475849,38.617893033558772],[-118.637585168268913,38.656505862247343],[-118.669716585061934,38.799192389210631],[-118.689489764626884,38.860806383117783],[-118.694433059518119,38.897364455039366],[-118.6252269310408,38.918521057348755],[-118.568379039791594,38.910828476971339],[-118.506587853651155,38.853107550517457],[-118.469513141966843,38.837707385096607],[-118.444796667510715,38.860806383117783],[-118.476928084303722,38.895440814903097],[-118.484343026640587,38.97811027936546],[-118.494229616423056,39.022289261200314],[-118.464569847075666,39.024209460701954],[-118.42255184050012,39.005005118796426],[-118.390420423707099,39.003084397777471],[-118.400307013489581,39.074116338897298],[-118.447268314956332,39.112482245400223],[-118.44232502006507,39.151785634321264],[-118.410193603272049,39.163284915249406],[-118.402778660935198,39.228412000635416],[-118.412665250717666,39.251383615863993],[-118.405250308380786,39.283913859565565],[-118.452211609847524,39.283913859565565],[-118.504116206205538,39.283913859565565],[-118.49917291131429,39.343194836503478],[-118.521417738324871,39.392875630279477],[-118.501644558759921,39.473054539803115],[-118.479399731749325,39.511202536153519],[-118.415136898163283,39.522642853102333],[-118.348402417131581,39.593149832307574],[-118.321214295229808,39.67119545502787],[-118.212461807622589,39.882047597344275],[-118.190216980612021,39.919022461972268],[-118.113595909797866,39.95881923177302],[-118.014730011973143,40.030773591148424],[-117.881261049909767,40.129114568057091],[-117.87878940246415,40.174454797397743],[-117.90844917181154,40.238634965922046],[-117.871374460127313,40.359279796008117],[-117.977655300288873,40.485348956114237],[-118.059219665994277,40.558623678567557],[-118.08146449300483,40.521056903484045],[-118.096294377678532,40.442098116153929],[-118.078992845559199,40.355512906327817],[-118.064162960885497,40.310293816406791],[-118.03697483898371,40.236748181311796],[-118.051804723657398,40.14989926380359],[-118.125954147025936,40.10076155545709],[-118.195160275503255,40.106433103649273],[-118.227291692296276,40.140452463019074],[-118.224820044850674,40.263158381154291],[-118.269309698871794,40.332907148966704],[-118.289082878436744,40.536086141498544],[-118.269309698871794,40.581153630862637],[-118.166736329878631,40.635569696405973],[-118.055512194825809,40.635569696405973],[-117.996192656131015,40.620562793722556],[-117.93192982254493,40.663698549015869],[-117.924514880208079,40.704932749347456],[-118.003607598467852,40.723667133870642],[-118.025852425478419,40.746141436398624],[-117.956646297001114,40.854660184676582],[-117.875081931295725,40.856529641609285],[-117.838007219611427,40.845312108708605],[-117.7613861487973,40.849051497354665],[-117.664991898418194,40.951801981301493],[-117.605672359723357,41.018970394934833],[-117.541409526137286,40.977931160426671],[-117.472203397659996,40.938733512320837],[-117.430185391084507,40.963001467726137],[-117.489504929779301,41.000319364973663],[-117.479618339996833,41.054392805748797],[-117.442543628312578,41.097247060313101],[-117.449958570649429,41.114008511044574],[-117.506806461898634,41.108421836179389],[-117.516693051681131,41.143796081115106],[-117.50927810934428,41.188452077617086],[-117.464788455323159,41.25537900290329],[-117.4623168078775,41.346363906561187],[-117.383224089617755,41.42795644862904],[-117.380752442172138,41.500191497428659],[-117.427631946559117,41.531373305791369],[-117.474106291515852,41.577743818659812],[-117.520580636472573,41.593193263399137],[-117.539944946871202,41.600916599468441],[-117.560600211296403,41.577743818659812],[-117.589001199881054,41.550698395562037],[-117.589001199881054,41.47529789060772],[-117.609656464306283,41.41336522227477],[-117.612238372359428,41.388188192147915],[-117.63289363678463,41.382376723138563],[-117.643221268997237,41.330050130798682],[-117.669040349528743,41.324233468424055],[-117.715514694485464,41.351373450043418],[-117.733588050857492,41.372689787247268],[-117.756825223335866,41.423046098119187],[-117.759407131388997,41.461755170605215],[-117.73875186696381,41.529440479191891],[-117.73875186696381,41.548766146464949],[-117.759407131388997,41.562290677318636],[-117.761989039442142,41.608639011297861],[-117.741333775016955,41.680027500723881],[-117.725842326698029,41.708946245846946],[-117.643221268997237,41.772521712884107],[-117.614820280412573,41.822567139000981],[-117.604492648199979,41.853344898433249],[-117.589001199881054,41.899483781793094],[-117.565764027402693,41.955190486852537],[-117.565764027402693,41.980146666807059],[-117.607074556253124,41.985904396864889],[-117.638057452890948,41.96862964472313],[-117.723260418644884,41.959030535478995],[-117.787808119973633,41.922540731776635],[-117.808463384398891,41.807172708786332],[-117.826536740770919,41.782148868302066],[-117.878174901833944,41.762893112336016],[-117.885920625993407,41.732071879949515],[-117.92723115484381,41.722437210457727],[-117.981451223959979,41.627940997127283],[-117.978869315906834,41.556494796334434],[-117.986615040066269,41.531373305791369],[-117.999524580332036,41.504308478537098],[-118.022761752810382,41.465624807838914],[-118.033089385023004,41.426918044412496],[-118.062781327634212,41.428853930976224],[-118.065363235687357,41.481101047461934],[-118.062781327634212,41.554562720497266],[-118.093764224272007,41.641448949833219],[-118.145402385335004,41.760967218815615],[-118.18929482223858,41.828339096370399],[-118.235769167195301,41.911013297835517],[-118.287407328258297,41.912934681418513],[-118.310644500736672,41.884107855069409],[-118.295153052417774,41.785999325820491],[-118.259006339673661,41.600916599468441],[-118.261588247726806,41.525574652750535],[-118.287407328258297,41.490771820832101],[-118.336463581268205,41.506242055818717],[-118.336463581268205,41.57967520141505],[-118.372610294012304,41.624081062118371],[-118.434576087287923,41.647237205810477],[-118.47846852419147,41.697380308057589],[-118.493959972510353,41.760967218815615],[-118.545598133573407,41.797549310963156],[-118.56625339799858,41.839881450015945],[-118.584326754370665,41.843728438672315],[-118.594654386583215,41.797549310963156],[-118.603691064769293,41.728218185537436],[-118.606272972822467,41.614430213619627],[-118.59852724866299,41.583537793645441],[-118.56754435202518,41.568086038501896],[-118.572708168131498,41.527507594844778],[-118.626928237247668,41.469494214145293],[-118.668238766098071,41.469494214145293],[-118.714713111054792,41.508175575358415],[-118.768933180170933,41.502374843514033],[-118.823153249287131,41.44627431247465],[-118.88770095061588,41.407556004140112],[-118.867045686190679,41.287382548860222],[-118.926429571413138,41.236921229012395],[-118.949666743891498,41.203906209127361],[-118.939339111678905,41.155324436421523],[-118.952248651944643,41.113515293347795],[-118.952248651944643,41.101842870029017],[-118.923847663359993,41.099897264412483],[-118.93675720362576,41.049291289813283],[-118.944502927785166,41.025921547829277],[-118.929011479466297,41.010337110569388],[-118.947084835838339,40.981106353070835],[-118.947084835838339,40.9499125930326],[-119.003886813007639,40.94211184918958],[-119.019378261326565,40.955762546183941],[-119.02196016937971,41.066813151102401],[-118.993559180795074,41.0940601017506],[-118.993559180795074,41.125185641645267],[-119.122654583452587,41.253422488820092],[-119.139436985798071,41.267978963321767],[-119.167837974382707,41.308719830180443],[-119.185911330754791,41.291262573750174],[-119.180747514648502,41.240804253264109],[-119.162674158276445,41.180591455518794],[-119.162674158276445,41.110597382046841],[-119.157510342170141,41.072652734273206],[-119.173001790489025,41.008388796657677],[-119.20398468712682,40.944062121538806],[-119.229803767658311,40.910899659555945],[-119.265950480402424,40.912850853299915],[-119.276278112615046,40.969410421009513],[-119.294351468987131,41.008388796657677],[-119.333080089784389,41.000594964914086],[-119.374390618634763,40.953812619394697],[-119.382136342794226,40.936260686595908],[-119.449265952176162,40.932359623584048],[-119.451847860229307,40.906997099321408],[-119.413119239432049,40.871863693125547],[-119.397627791113166,40.827920704958316],[-119.395045883060021,40.808381134402097],[-119.392463975006848,40.767329303617316],[-119.345989630050113,40.751683835981467],[-119.309842917306014,40.759507030102256],[-119.299515285093392,40.737991031175511],[-119.333080089784389,40.71451109304094],[-119.369226802528487,40.716468070949965],[-119.392463975006848,40.657733713016924],[-119.407955423325731,40.67144302644342],[-119.436356411910424,40.712554057607619],[-119.490576481026565,40.720381854192702],[-119.503486021292332,40.759507030102256],[-119.521559377664374,40.759507030102256],[-119.539632734036431,40.728208730360421],[-119.586107078993138,40.728208730360421],[-119.601598527312063,40.687107362531904],[-119.640327148109336,40.685149521820549],[-119.666146228640827,40.64206247583499],[-119.690674355145774,40.628347124424728],[-119.716493435677279,40.636184813088882],[-119.750058240368205,40.657733713016924],[-119.770713504793434,40.681233667852247],[-119.791368769218636,40.681233667852247],[-119.799114493378084,40.640103312421026],[-119.804278309484346,40.632266083755169],[-119.858498378600544,40.618548719894633],[-119.863662194706862,40.573457546858172],[-119.861080286653717,40.54403387756831],[-119.915300355769858,40.526373468917889],[-119.946283252407653,40.524410913951137],[-119.943701344354523,40.502819016729596],[-119.933373712141943,40.489075098548945],[-119.951447068513971,40.469436046156758],[-119.904972723557265,40.430140707591249],[-119.933373712141943,40.359351206704147],[-119.943701344354523,40.325896965167267],[-119.917882263823003,40.270759700078138],[-119.884317459132049,40.227406001792033],[-119.88173555107889,40.193886398702681],[-119.904972723557265,40.193886398702681],[-119.923046079929321,40.223463379541244],[-119.960466042429218,40.268943564777942],[-119.970699086199247,40.266684439387276],[-119.970699086199247,40.266684439387276],[-119.972108521148726,40.263995732735943],[-119.983384000744564,40.260769143686161],[-119.986202870643524,40.253239837447857],[-119.996068915289882,40.253777672821201],[-120.005230242461522,40.261844690468422],[-120.010867982259441,40.269373039166972],[-120.015801004582613,40.267759892123856]]]}},
{"type":"Feature","properties":{"fid":4,"region":"Central Great Basin","section":"Central Section","source":"Tiehm & Nachlinger, Nevada Vascular Plants: An Annotated Checklist of the State's Botanical Diversity, Fig. 1"},"geometry":{"type":"Polygon","coordinates":[[[-117.87878940246415,40.174454797397743],[-117.90844917181154,40.238634965922046],[-117.871374460127313,40.359279796008117],[-117.977655300288873,40.485348956114237],[-118.059219665994277,40.558623678567557],[-118.08146449300483,40.521056903484045],[-118.096294377678532,40.442098116153929],[-118.078992845559199,40.355512906327817],[-118.064162960885497,40.310293816406791],[-118.03697483898371,40.236748181311796],[-118.051804723657398,40.14989926380359],[-118.125954147025936,40.10076155545709],[-118.195160275503255,40.106433103649273],[-118.227291692296276,40.140452463019074],[-118.224820044850674,40.263158381154291],[-118.269309698871794,40.332907148966704],[-118.289082878436744,40.536086141498544],[-118.289082878436744,40.536086141498544],[-118.269309698871794,40.581153630862637],[-118.166736329878631,40.635569696405973],[-118.055512194825809,40.635569696405973],[-117.996192656131015,40.620562793722556],[-117.93192982254493,40.663698549015869],[-117.924514880208079,40.704932749347456],[-118.003607598467852,40.723667133870642],[-118.025852425478419,40.746141436398624],[-117.956646297001114,40.854660184676582],[-117.875081931295725,40.856529641609285],[-117.838007219611427,40.845312108708605],[-117.7613861487973,40.849051497354665],[-117.664991898418194,40.951801981301493],[-117.605672359723357,41.018970394934833],[-117.541409526137286,40.977931160426671],[-117.472203397659996,40.938733512320837],[-117.430185391084507,40.963001467726137],[-117.489504929779301,41.000319364973663],[-117.479618339996833,41.054392805748797],[-117.442543628312578,41.097247060313101],[-117.449958570649429,41.114008511044574],[-117.506806461898634,41.108421836179389],[-117.516693051681131,41.143796081115106],[-117.50927810934428,41.188452077617086],[-117.464788455323159,41.25537900290329],[-117.4623168078775,41.346363906561187],[-117.383224089617755,41.42795644862904],[-117.380752442172138,41.500191497428659],[-117.427631946559117,41.531373305791369],[-117.381157601602453,41.568086038501896],[-117.375993785496121,41.604777920914991],[-117.375993785496121,41.604777920914991],[-117.388903325761888,41.670385029751401],[-117.476688199569026,41.680027500723881],[-117.497343463994227,41.69930810882807],[-117.505089188153661,41.749410643854823],[-117.474106291515852,41.776372748469996],[-117.45603293514381,41.805248144846111],[-117.412140498240234,41.809097214913493],[-117.375993785496121,41.839881450015945],[-117.339847072752022,41.836034230077857],[-117.3295194405394,41.797549310963156],[-117.290790819742142,41.726291251638628],[-117.257226015051202,41.722437210457727],[-117.208169762041337,41.562290677318636],[-117.027436198320771,41.546833839615481],[-116.946106094646538,41.575812378145173],[-116.89188602553034,41.583537793645441],[-116.868648853052022,41.517842306911383],[-116.863485036945704,41.510109037155708],[-116.837665956414199,41.415301512882976],[-116.780863979244884,41.34555869174612],[-116.716316277916107,41.351373450043418],[-116.703406737650369,41.423046098119187],[-116.677587657118821,41.502374843514033],[-116.646604760481054,41.498507400245479],[-116.582057059152277,41.473363389520514],[-116.538164622248729,41.494639726016892],[-116.458125472601054,41.498507400245479],[-116.381959185033068,41.531373305791369],[-116.312247667598044,41.583537793645441],[-116.214135161578298,41.597055046961927],[-116.159915092462128,41.57194932383954],[-116.139259828036899,41.57194932383954],[-116.097949299186524,41.641448949833219],[-116.069548310601817,41.67424219148814],[-116.005000609273068,41.68774043739635],[-116.007582517326242,41.647237205810477],[-116.030819689804559,41.595124184062328],[-116.051474954229789,41.506242055818717],[-116.043729230070355,41.473363389520514],[-116.038565413964051,41.349435254979809],[-116.095367391133365,41.295142367891366],[-116.074712126708164,41.267978963321767],[-116.025655873698298,41.242745678879423],[-115.98692725290104,41.254393021391067],[-115.891396654934468,41.300961626440355],[-115.883650930775019,41.372689787247268],[-115.924961459625436,41.494639726016892],[-115.895269517014185,41.52170859532243],[-115.879778068695245,41.568086038501896],[-115.859122804270072,41.610569469839241],[-115.833303723738581,41.641448949833219],[-115.807484643207033,41.691596559020816],[-115.768756022409789,41.710873699880878],[-115.745518849931415,41.68774043739635],[-115.737633504412287,41.643981515195094],[-115.719609857511415,41.612827250822292],[-115.668918350602638,41.580815309471319],[-115.637376968526084,41.58502831414426],[-115.619460382549974,41.588902435936426],[-115.6245832047573,41.557284861011148],[-115.62842532141282,41.554409768632283],[-115.63098673251649,41.53044569208771],[-115.614337560342619,41.511268036912462],[-115.610495443687128,41.50455451496876],[-115.574635688235716,41.508390898466125],[-115.517003938403192,41.558243196716958],[-115.508038999540346,41.575490809399689],[-115.525855653326886,41.595559623225327],[-115.529235087120796,41.609037191842361],[-115.502199616769488,41.651136449299486],[-115.506705528494692,41.671334326837396],[-115.507832006425986,41.708347314062969],[-115.485302447799896,41.710870151316271],[-115.476290624349446,41.69741387524067],[-115.461646411242469,41.66123617996616],[-115.461646411242469,41.66123617996616],[-115.461646411242469,41.66123617996616],[-115.447002198135493,41.602298759402863],[-115.424472639509389,41.595559623225327],[-115.345619184318011,41.593032265730308],[-115.302813022928419,41.603983433488963],[-115.279156986370992,41.634300045487507],[-115.265639251195338,41.659132200016565],[-115.222833089805718,41.695311077720412],[-115.204889360642269,41.665360523538084],[-115.132454163129935,41.643629964284379],[-114.980340248354025,41.601979725714791],[-114.916959450530726,41.54403156770492],[-114.906094170903884,41.371997973613119],[-114.837280733267164,41.332158614981338],[-114.78567065503961,41.320387895385579],[-114.724100737154131,41.333064054950235],[-114.704181057838241,41.372903413582023],[-114.657098179455218,41.396444852773534],[-114.619069700761244,41.37471429351983],[-114.611826181010002,41.309522615758731],[-114.590095621756305,41.25519621762448],[-114.613637060947809,41.22078949880612],[-114.767561855661526,41.224411258681734],[-114.801968574479886,41.260628857437901],[-114.856294972614137,41.182761020112139],[-114.827320893609212,41.161030460858441],[-114.832753533422633,41.124812862102274],[-114.945028089566762,41.104893182786377],[-114.93778456981552,41.045134144838705],[-114.919675770437436,41.019781825709387],[-114.912432250686209,40.996240386517876],[-114.881647291743462,40.94915750813486],[-114.798346814604272,40.941913988383625],[-114.780238015226189,40.907507269565265],[-114.787481534977417,40.795232713421143],[-114.821888253795777,40.793421833483336],[-114.825510013671405,40.702877836592918],[-114.863538492365379,40.606901199889066],[-114.880741851774559,40.51273544312302],[-114.820982813826888,40.47832872430466],[-114.844524253018392,40.405893526792326],[-114.889796251463608,40.382352087600815],[-114.935068249908809,40.395028247165477],[-114.989394648043074,40.250157852140802],[-115.063640725493215,40.237481692576146],[-115.079938644933492,40.280942811083548],[-115.099858324249382,40.302673370337246],[-115.132454163129935,40.300862490399439],[-115.1904023211398,40.338890969093413],[-115.250161359087485,40.331647449342178],[-115.27913543809241,40.291808090710397],[-115.275513678216797,40.27551017127012],[-115.248350479149664,40.250157852140802],[-115.246539599211857,40.212129373446828],[-115.34251623591571,40.213940253384635],[-115.387788234360912,40.166857375001612],[-115.366963115076132,40.112530976867369],[-115.35971959532489,40.069069858359967],[-115.448452712277501,39.965849701904887],[-115.502779110411765,40.012932580287902],[-115.591512227364376,40.012932580287902],[-115.647649505436434,39.982147621345163],[-115.645838625498627,39.86625130532542],[-115.598755747115604,39.828222826631446],[-115.662136544938903,39.779329068310616],[-115.687488864068214,39.695123151202523],[-115.662136544938903,39.602768274374291],[-115.542618469043546,39.597335634560871],[-115.537185829230125,39.514035157421681],[-115.571592548048486,39.466952279038665],[-115.571592548048486,39.441599959909347],[-115.52632054960327,39.419869400655642],[-115.513644390038607,39.323892763951797],[-115.562538148359437,39.284053405320016],[-115.611431906680266,39.267755485879739],[-115.61505366655588,39.189887648553977],[-115.569781668110664,39.148237409984382],[-115.578836067799713,39.106587171414787],[-115.636784225809578,39.028719334089025],[-115.636784225809578,38.999745255084093],[-115.566159908235051,38.988879975457245],[-115.537185829230125,38.957189576545581],[-115.558916388483823,38.90286317841133],[-115.500968230473944,38.759803663324469],[-115.471994151469019,38.714531664879253],[-115.555294628608209,38.466441113399505],[-115.654893025187661,38.489982552591016],[-115.7472479020159,38.533443671098418],[-115.823304859403862,38.503564152124582],[-115.835981018968525,38.432939834550055],[-115.881253017413727,38.385856956167032],[-115.931957655672363,38.347828477473058],[-115.960931734677303,38.338774077784016],[-115.957309974801689,38.32247615834374],[-115.957309974801689,38.32247615834374],[-115.944633815237026,38.295312959276615],[-116.00258197324689,38.242797441080171],[-116.084071570448273,38.168551363630023],[-116.198157006530209,38.161307843878795],[-116.145641488333766,38.25366272070702],[-116.216265805908293,38.394911355856074],[-116.35570356111954,38.394911355856074],[-116.386488520062272,38.327908798157168],[-116.366568840746382,38.233743041391129],[-116.393732039813514,38.199336322572769],[-116.391921159875707,38.143199044500712],[-116.426327878694067,38.123279365184814],[-116.478843396890511,38.139577284625091],[-116.527737155211341,38.226499521639894],[-116.540413314775989,38.367748156788949],[-116.578441793469977,38.380424316353611],[-116.573009153656557,38.465535673430608],[-116.589307073096833,38.490887992559927],[-116.645444351168891,38.49450975243554],[-116.705203389116576,38.394911355856074],[-116.690716349614107,38.320665278405933],[-116.705203389116576,38.239175681204557],[-116.732366588183694,38.235553921328936],[-116.739610107934936,38.255473600644827],[-116.79212562613138,38.237364801266743],[-116.89534578258646,38.289880319463187],[-116.949672180720711,38.373180796602377],[-116.908021942151109,38.441994234239097],[-116.904400182275495,38.501753272186775],[-116.947861300782904,38.507185912000196],[-116.989511539352492,38.467346553368415],[-117.043837937486742,38.452859513865945],[-117.101786095496621,38.393100475918267],[-117.181464812760183,38.378613436415804],[-117.197762732200459,38.443805114176904],[-117.179653932822376,38.472779193181836],[-117.179653932822376,38.50899679193801],[-117.214060651640736,38.52529471137828],[-117.399675845266117,38.454670393803752],[-117.452191363462561,38.465535673430608],[-117.497463361907776,38.516240311689238],[-117.635090237181217,38.54340351075637],[-117.642333756932445,38.635758387584595],[-117.649577276683686,38.664732466589534],[-117.63327935724341,38.726302384475019],[-117.621508637647636,38.922782857727221],[-117.648671836714769,38.964433096296816],[-117.645050076839155,39.05497709318724],[-117.738310393636311,39.118357891010533],[-117.776338872330285,39.116547011072726],[-117.794447671708369,39.094816451819028],[-117.821610870775487,39.096627331756835],[-117.843341430029199,39.134655810450809],[-117.839719670153571,39.174495169082597],[-117.821610870775487,39.284958845288912],[-117.848774069842619,39.37550284217933],[-117.942939826608651,39.389989881681799],[-117.977346545427011,39.29220236504014],[-118.000887984618529,39.290391485102333],[-118.022618543872227,39.297635004853568],[-118.06970142225525,39.268660925848636],[-118.096864621322368,39.290391485102333],[-118.076944942006477,39.339285243423163],[-118.122216940451693,39.348339643112205],[-118.122216940451693,39.449748919629478],[-118.084188461757705,39.489588278261259],[-118.033483823499083,39.495020918074687],[-118.02080766393442,39.57922683518278],[-118.000887984618529,39.633553233317031],[-117.852395829718233,39.709610190704986],[-117.758230072952202,39.863534985418703],[-117.696660155066709,39.874400265045551],[-117.633279357243424,39.992107461003101],[-117.58076383904698,40.03737945944831],[-117.535491840601765,40.108003777022837],[-117.535491840601765,40.14059961590339],[-117.573520319295739,40.14059961590339],[-117.609737918051906,40.097138497395989],[-117.656820796434928,40.127923456338728],[-117.709336314631372,40.153275775468046],[-117.725634234071649,40.175006334721751],[-117.794447671708369,40.178628094597364],[-117.808934711210838,40.202169533788876],[-117.848774069842619,40.191304254162027],[-117.87878940246415,40.174454797397743]]]}},
{"type":"Feature","properties":{"fid":5,"region":"Central Great Basin","section":"Bonneville Section","source":"Tiehm & Nachlinger, Nevada Vascular Plants: An Annotated Checklist of the State's Botanical Diversity, Fig. 1"},"geometry":{"type":"Polygon","coordinates":[[[-114.977260900781147,41.99991724152104],[-114.036391954904744,41.98961271119137],[-114.054983290828503,41.298447358638064],[-114.071309211834588,41.261954123448014],[-114.079952346484859,41.248509247325366],[-114.099159312374354,41.22642123655244],[-114.085714436251706,41.185126259890012],[-114.070348863540104,41.150553721288908],[-114.070348863540104,41.100615609976209],[-114.099159312374354,41.082368992381184],[-114.21055971453346,41.098694913387263],[-114.215361456005837,41.125584665632559],[-114.207678669650036,41.147672676405485],[-114.312356633747811,41.144791631522061],[-114.322920464987035,41.124624317338089],[-114.357493003588132,41.103496654859633],[-114.452567484741166,41.087170733853561],[-114.491941764814641,41.115020834393334],[-114.499624551170442,41.16111755252814],[-114.530355696593645,41.16591929400051],[-114.613637060947809,41.22078949880612],[-114.590095621756305,41.25519621762448],[-114.611826181010002,41.309522615758731],[-114.619069700761244,41.37471429351983],[-114.657098179455218,41.396444852773534],[-114.704181057838241,41.372903413582023],[-114.724100737154131,41.333064054950235],[-114.78567065503961,41.320387895385579],[-114.837280733267164,41.332158614981338],[-114.906094170903884,41.371997973613119],[-114.916959450530726,41.54403156770492],[-114.980340248354025,41.601979725714791],[-115.132454163129935,41.643629964284379],[-115.204889360642269,41.665360523538084],[-115.222833089805718,41.695311077720412],[-115.212694788423988,41.71381333631102],[-115.209315354630064,41.729788274793897],[-115.186785796003932,41.749961467584107],[-115.17101510496569,41.766767620491187],[-115.149612024270866,41.786089255210122],[-115.138347244957814,41.807924093527049],[-115.125955987713468,41.814641008662463],[-115.121450075988236,41.8238756169143],[-115.112438252537814,41.844858410295309],[-115.105679384949966,41.858283787927256],[-115.082023348392539,41.879255299245024],[-115.052734922178615,41.878416570885371],[-115.022320018033369,41.895189046506886],[-115.005422849063763,41.913633683647411],[-114.998663981475943,41.926206517494023],[-114.991905113888109,41.950506971769151],[-114.982893290437673,41.973123208332147],[-114.977260900781147,41.99991724152104]]]}},
{"type":"Feature","properties":{"fid":6,"region":"Central Great Basin","section":"Bonneville Section","source":"Tiehm & Nachlinger, Nevada Vascular Plants: An Annotated Checklist of the State's Botanical Diversity, Fig. 1"},"geometry":{"type":"Polygon","coordinates":[[[-114.069304357772623,40.997280134246346],[-114.090315926146616,40.955256997498338],[-114.127669825478179,40.94708583201956],[-114.181366055767299,41.011287846495676],[-114.261910401200964,41.003116681016898],[-114.277085422804419,40.930743501062004],[-114.226891120577633,40.787164450506324],[-114.205879552203626,40.733468220217212],[-114.233894976702302,40.711289342489096],[-114.222221883161183,40.638916162534201],[-114.249069998305743,40.596893025786194],[-114.246735379597524,40.553702579684085],[-114.236229595410521,40.42529855073186],[-114.212883408328295,40.401952363649634],[-114.232727667348186,40.293392593717286],[-114.301598919240746,40.225688651178842],[-114.307435466011299,40.230357888595286],[-114.310937394073633,40.202342464096617],[-114.296929681824309,40.174327039597948],[-114.292260444407859,40.051759557416268],[-114.280587350866753,39.958374809087374],[-114.309770084719531,39.89534010396536],[-114.302766228594862,39.79962073692824],[-114.06696973906439,39.666547470559564],[-114.059965882939721,40.256622349062788],[-114.054129336169169,40.996112824892236],[-114.069304357772623,40.997280134246346]]]}},
{"type":"Feature","properties":{"fid":7,"region":"Central Great Basin","section":"Bonneville Section","source":"Tiehm & Nachlinger, Nevada Vascular Plants: An Annotated Checklist of the State's Botanical Diversity, Fig. 1"},"geometry":{"type":"Polygon","coordinates":[[[-114.071638976480841,39.609932966885168],[-114.114829422582957,39.471023153745939],[-114.132339062894616,39.46401929762127],[-114.126502516124063,39.41732692345682],[-114.075140904543176,39.332113340606703],[-114.077475523251394,39.213047786487365],[-114.098487091625401,39.187366980696922],[-114.179031437059066,39.158184246844137],[-114.193039149308404,39.07297066399402],[-114.168525652872077,39.001764793393235],[-114.068137048418507,38.904878117002006],[-114.064635120356172,39.60759834817695],[-114.071638976480841,39.609932966885168]]]}},
{"type":"Feature","properties":{"fid":8,"region":"Central Great Basin","section":"Bonneville Section","source":"Tiehm & Nachlinger, Nevada Vascular Plants: An Annotated Checklist of the State's Botanical Diversity, Fig. 1"},"geometry":{"type":"Polygon","coordinates":[[[-114.071638976480841,37.805272705429239],[-114.108992875812405,37.771420734160017],[-114.133506372248732,37.764416878035348],[-114.137008300311066,37.746907237723683],[-114.203544933495408,37.723561050641457],[-114.209381480265961,37.643016705207785],[-114.224556501869415,37.591655093626891],[-114.215218027036514,37.556635813003552],[-114.188369911891954,37.539126172691887],[-114.133506372248732,37.536791553983662],[-114.06696973906439,37.579982000085778],[-114.071638976480841,37.805272705429239]]]}},
{"type":"Feature","properties":{"fid":9,"region":"Central Great Basin","section":"Calcareous Mountains Section","source":"Tiehm & Nachlinger, Nevada Vascular Plants: An Annotated Checklist of the State's Botanical Diversity, Fig. 1"},"geometry":{"type":"Polygon","coordinates":[[[-114.054983290828503,41.298447358638064],[-114.054129336169169,40.996112824892236],[-114.069304357772623,40.997280134246346],[-114.090315926146616,40.955256997498338],[-114.127669825478179,40.94708583201956],[-114.181366055767299,41.011287846495676],[-114.261910401200964,41.003116681016898],[-114.277085422804419,40.930743501062004],[-114.226891120577633,40.787164450506324],[-114.205879552203626,40.733468220217212],[-114.233894976702302,40.711289342489096],[-114.222221883161183,40.638916162534201],[-114.249069998305743,40.596893025786194],[-114.246735379597524,40.553702579684085],[-114.236229595410521,40.42529855073186],[-114.212883408328295,40.401952363649634],[-114.232727667348186,40.293392593717286],[-114.301598919240746,40.225688651178842],[-114.307435466011299,40.230357888595286],[-114.310937394073633,40.202342464096617],[-114.296929681824309,40.174327039597948],[-114.292260444407859,40.051759557416268],[-114.280587350866753,39.958374809087374],[-114.309770084719531,39.89534010396536],[-114.302766228594862,39.79962073692824],[-114.06696973906439,39.666547470559564],[-114.064635120356172,39.60759834817695],[-114.071638976480841,39.609932966885168],[-114.114829422582957,39.471023153745939],[-114.132339062894616,39.46401929762127],[-114.126502516124063,39.41732692345682],[-114.075140904543176,39.332113340606703],[-114.077475523251394,39.213047786487365],[-114.098487091625401,39.187366980696922],[-114.179031437059066,39.158184246844137],[-114.193039149308404,39.07297066399402],[-114.168525652872077,39.001764793393235],[-114.068137048418507,38.904878117002006],[-114.071638976480841,37.805272705429239],[-114.108992875812405,37.771420734160017],[-114.133506372248732,37.764416878035348],[-114.137008300311066,37.746907237723683],[-114.203544933495408,37.723561050641457],[-114.206939704266276,37.679827468347035],[-114.238067953709248,37.715402610567565],[-114.225838998570936,37.809899082090851],[-114.190263856350413,37.82546320681233],[-114.123560464686918,38.01334442666451],[-114.126895634270085,38.125072607700858],[-114.16914111565697,38.171764981865302],[-114.198045918711145,38.190664276169962],[-114.242514846486813,38.150642241171859],[-114.242514846486813,38.078380233536407],[-114.279201711901734,38.050587153676624],[-114.365916121064274,38.05614576964858],[-114.46761144753782,38.070820008864615],[-114.570331122050078,38.030989930992519],[-114.536790003842,37.89682545816018],[-114.564042162386073,37.796202103535926],[-114.610161199922189,37.812972662639964],[-114.640557838298264,37.888440178608157],[-114.640557838298264,38.033086250880523],[-114.68667687583438,38.114842726512727],[-114.755855432138546,38.135805925392781],[-114.902597824298923,38.15467280438483],[-114.961294781163076,38.265777758449104],[-115.16234402129551,38.3260511685842],[-115.335788298201095,38.31675951089283],[-115.419413217423426,38.264106783975066],[-115.484454821263014,38.158801330139539],[-115.606794980866056,38.053495876304005],[-115.718294873162492,37.960579299390304],[-115.823600326998019,37.938898764777107],[-115.851475300072138,38.10924582245223],[-115.674933803936099,38.211454057057303],[-115.555294628608209,38.466441113399505],[-115.471994151469019,38.714531664879253],[-115.500968230473944,38.759803663324469],[-115.558916388483823,38.90286317841133],[-115.537185829230125,38.957189576545581],[-115.566159908235051,38.988879975457245],[-115.636784225809578,38.999745255084093],[-115.636784225809578,39.028719334089025],[-115.578836067799713,39.106587171414787],[-115.569781668110664,39.148237409984382],[-115.61505366655588,39.189887648553977],[-115.611431906680266,39.267755485879739],[-115.562538148359437,39.284053405320016],[-115.513644390038607,39.323892763951797],[-115.52632054960327,39.419869400655642],[-115.571592548048486,39.441599959909347],[-115.571592548048486,39.466952279038665],[-115.537185829230125,39.514035157421681],[-115.542618469043546,39.597335634560871],[-115.662136544938903,39.602768274374291],[-115.687488864068214,39.695123151202523],[-115.662136544938903,39.779329068310616],[-115.598755747115604,39.828222826631446],[-115.645838625498627,39.86625130532542],[-115.647649505436434,39.982147621345163],[-115.591512227364376,40.012932580287902],[-115.502779110411765,40.012932580287902],[-115.448452712277501,39.965849701904887],[-115.35971959532489,40.069069858359967],[-115.366963115076132,40.112530976867369],[-115.387788234360912,40.166857375001612],[-115.34251623591571,40.213940253384635],[-115.246539599211857,40.212129373446828],[-115.248350479149664,40.250157852140802],[-115.275513678216797,40.27551017127012],[-115.27913543809241,40.291808090710397],[-115.250161359087485,40.331647449342178],[-115.1904023211398,40.338890969093413],[-115.132454163129935,40.300862490399439],[-115.099858324249382,40.302673370337246],[-115.079938644933492,40.280942811083548],[-115.063640725493215,40.237481692576146],[-114.989394648043074,40.250157852140802],[-114.935068249908809,40.395028247165477],[-114.889796251463608,40.382352087600815],[-114.844524253018392,40.405893526792326],[-114.820982813826888,40.47832872430466],[-114.880741851774559,40.51273544312302],[-114.863538492365379,40.606901199889066],[-114.825510013671405,40.702877836592918],[-114.821888253795777,40.793421833483336],[-114.787481534977417,40.795232713421143],[-114.780238015226189,40.907507269565265],[-114.798346814604272,40.941913988383625],[-114.881647291743462,40.94915750813486],[-114.912432250686209,40.996240386517876],[-114.919675770437436,41.019781825709387],[-114.93778456981552,41.045134144838705],[-114.945028089566762,41.104893182786377],[-114.832753533422633,41.124812862102274],[-114.827320893609212,41.161030460858441],[-114.856294972614137,41.182761020112139],[-114.801968574479886,41.260628857437901],[-114.767561855661526,41.224411258681734],[-114.613637060947809,41.22078949880612],[-114.530355696593645,41.16591929400051],[-114.499624551170442,41.16111755252814],[-114.491941764814641,41.115020834393334],[-114.452567484741166,41.087170733853561],[-114.357493003588132,41.103496654859633],[-114.322920464987035,41.124624317338089],[-114.312356633747811,41.144791631522061],[-114.207678669650036,41.147672676405485],[-114.215361456005837,41.125584665632559],[-114.21055971453346,41.098694913387263],[-114.099159312374354,41.082368992381184],[-114.070348863540104,41.100615609976209],[-114.070348863540104,41.150553721288908],[-114.085714436251706,41.185126259890012],[-114.099159312374354,41.22642123655244],[-114.079952346484859,41.248509247325366],[-114.071309211834588,41.261954123448014],[-114.054983290828503,41.298447358638064]]]}},
{"type":"Feature","properties":{"fid":10,"region":"Central Great Basin","section":"Tonopah Section","source":"Tiehm & Nachlinger, Nevada Vascular Plants: An Annotated Checklist of the State's Botanical Diversity, Fig. 1"},"geometry":{"type":"Polygon","coordinates":[[[-117.87878940246415,40.174454797397743],[-117.848774069842619,40.191304254162027],[-117.808934711210838,40.202169533788876],[-117.794447671708369,40.178628094597364],[-117.725634234071649,40.175006334721751],[-117.709336314631372,40.153275775468046],[-117.656820796434928,40.127923456338728],[-117.609737918051906,40.097138497395989],[-117.573520319295739,40.14059961590339],[-117.535491840601765,40.14059961590339],[-117.535491840601765,40.108003777022837],[-117.58076383904698,40.03737945944831],[-117.633279357243424,39.992107461003101],[-117.696660155066709,39.874400265045551],[-117.758230072952202,39.863534985418703],[-117.852395829718233,39.709610190704986],[-118.000887984618529,39.633553233317031],[-118.02080766393442,39.57922683518278],[-118.033483823499083,39.495020918074687],[-118.084188461757705,39.489588278261259],[-118.122216940451693,39.449748919629478],[-118.122216940451693,39.348339643112205],[-118.076944942006477,39.339285243423163],[-118.096864621322368,39.290391485102333],[-118.06970142225525,39.268660925848636],[-118.022618543872227,39.297635004853568],[-118.000887984618529,39.290391485102333],[-117.977346545427011,39.29220236504014],[-117.942939826608651,39.389989881681799],[-117.848774069842619,39.37550284217933],[-117.821610870775487,39.284958845288912],[-117.839719670153571,39.174495169082597],[-117.843341430029199,39.134655810450809],[-117.821610870775487,39.096627331756835],[-117.794447671708369,39.094816451819028],[-117.776338872330285,39.116547011072726],[-117.738310393636311,39.118357891010533],[-117.645050076839155,39.05497709318724],[-117.648671836714769,38.964433096296816],[-117.621508637647636,38.922782857727221],[-117.63327935724341,38.726302384475019],[-117.649577276683686,38.664732466589534],[-117.642333756932445,38.635758387584595],[-117.635090237181217,38.54340351075637],[-117.497463361907776,38.516240311689238],[-117.452191363462561,38.465535673430608],[-117.399675845266117,38.454670393803752],[-117.214060651640736,38.52529471137828],[-117.179653932822376,38.50899679193801],[-117.179653932822376,38.472779193181836],[-117.197762732200459,38.443805114176904],[-117.181464812760183,38.378613436415804],[-117.101786095496621,38.393100475918267],[-117.043837937486742,38.452859513865945],[-116.989511539352492,38.467346553368415],[-116.947861300782904,38.507185912000196],[-116.904400182275495,38.501753272186775],[-116.908021942151109,38.441994234239097],[-116.949672180720711,38.373180796602377],[-116.89534578258646,38.289880319463187],[-116.79212562613138,38.237364801266743],[-116.739610107934936,38.255473600644827],[-116.732366588183694,38.235553921328936],[-116.705203389116576,38.239175681204557],[-116.690716349614107,38.320665278405933],[-116.705203389116576,38.394911355856074],[-116.645444351168891,38.49450975243554],[-116.589307073096833,38.490887992559927],[-116.573009153656557,38.465535673430608],[-116.578441793469977,38.380424316353611],[-116.540413314775989,38.367748156788949],[-116.527737155211341,38.226499521639894],[-116.478843396890511,38.139577284625091],[-116.426327878694067,38.123279365184814],[-116.391921159875707,38.143199044500712],[-116.393732039813514,38.199336322572769],[-116.366568840746382,38.233743041391129],[-116.386488520062272,38.327908798157168],[-116.35570356111954,38.394911355856074],[-116.216265805908293,38.394911355856074],[-116.145641488333766,38.25366272070702],[-116.198157006530209,38.161307843878795],[-116.084071570448273,38.168551363630023],[-116.00258197324689,38.242797441080171],[-115.944633815237026,38.295312959276615],[-115.957309974801689,38.32247615834374],[-115.960931734677303,38.338774077784016],[-115.931957655672363,38.347828477473058],[-115.881253017413727,38.385856956167032],[-115.835981018968525,38.432939834550055],[-115.823304859403862,38.503564152124582],[-115.7472479020159,38.533443671098418],[-115.654893025187661,38.489982552591016],[-115.555294628608209,38.466441113399505],[-115.674933803936099,38.211454057057303],[-115.851475300072138,38.10924582245223],[-115.823600326998019,37.938898764777107],[-115.718294873162492,37.960579299390304],[-115.718294873162492,37.960579299390304],[-115.606794980866056,38.053495876304005],[-115.484454821263014,38.158801330139539],[-115.335788298201095,38.31675951089283],[-115.16234402129551,38.3260511685842],[-115.16234402129551,38.3260511685842],[-114.961294781163076,38.265777758449104],[-114.902597824298923,38.15467280438483],[-114.68667687583438,38.114842726512727],[-114.640557838298264,38.033086250880523],[-114.640557838298264,37.888440178608157],[-114.640557838298264,37.888440178608157],[-114.610161199922189,37.812972662639964],[-114.564042162386073,37.796202103535926],[-114.536790003842,37.89682545816018],[-114.570331122050078,38.030989930992519],[-114.46761144753782,38.070820008864615],[-114.365916121064274,38.05614576964858],[-114.279201711901734,38.050587153676624],[-114.242514846486813,38.078380233536407],[-114.242514846486813,38.150642241171859],[-114.198045918711145,38.190664276169962],[-114.16914111565697,38.171764981865302],[-114.126895634270085,38.125072607700858],[-114.123560464686918,38.01334442666451],[-114.190263856350413,37.82546320681233],[-114.225838998570936,37.809899082090851],[-114.238067953709248,37.715402610567565],[-114.206939704266276,37.679827468347035],[-114.206939704266276,37.679827468347035],[-114.224556501869415,37.591655093626891],[-114.224556501869415,37.591655093626891],[-114.215218027036514,37.556635813003552],[-114.188369911891954,37.539126172691887],[-114.133506372248732,37.536791553983662],[-114.06696973906439,37.579982000085778],[-114.062218588398153,37.304866531397941],[-114.132257149644815,37.293193437856829],[-114.178949523809266,37.31187038752261],[-114.216303423140815,37.276851106899272],[-114.28167274697104,37.26984725077461],[-114.291011221803927,37.22782411402661],[-114.335368977260146,37.221987567256058],[-114.36571902046704,37.238329898213614],[-114.358715164342371,37.287356891086276],[-114.414746013339709,37.280353034961614],[-114.447430675254822,37.282687653669832],[-114.49178843071104,37.282687653669832],[-114.524473092626152,37.320041553001388],[-114.690231020909934,37.231326042088945],[-114.844315855652596,37.056229638972276],[-114.898012085941701,37.011871883516058],[-114.998400690395258,37.042221926722945],[-114.996066071687039,37.12860281892717],[-115.096454676140596,37.19163752404917],[-115.166493237387272,37.137941293760058],[-115.24120103605037,37.151949006009389],[-115.250539510883272,37.21264909242317],[-115.29489726633949,37.205645236298501],[-115.343924259212159,37.17062595567517],[-115.33692040308749,37.121598962802501],[-115.395285870793046,37.116929725386058],[-115.381278158543708,37.252337610462945],[-115.432639770124595,37.301364603335614],[-115.430305151416377,37.385410876831614],[-115.487503309767817,37.437939797766617],[-115.48283407235138,37.580351538968173],[-115.550538014889824,37.505643740305061],[-115.625245813552937,37.578016920259948],[-115.718630561881824,37.505643740305061],[-115.709292087048937,37.454282128724174],[-115.653261238051599,37.430935941641948],[-115.627580432261155,37.339885812021286],[-115.699953612216049,37.286189581732174],[-115.828357641168267,37.283854963023948],[-115.86104230308338,37.482297553222836],[-115.940419339162929,37.479962934514617],[-115.94508857657938,37.468289840973505],[-115.966100144953373,37.489301409347505],[-115.996450188160267,37.479962934514617],[-115.996450188160267,37.435605179058392],[-115.968434763661605,37.400585898435061],[-116.010457900409605,37.384243567477505],[-116.012792519117824,37.304866531397948],[-115.996450188160267,37.269847250774617],[-116.043142562324718,37.251170301108836],[-116.059484893282274,37.204477926944392],[-116.171546591276936,37.183466358570392],[-116.173881209985154,37.122766272156618],[-116.220573584149605,37.04572385478528],[-116.19722739706738,36.985023768371505],[-116.213569728024936,36.973350674830392],[-116.211235109316718,36.928992919374167],[-116.194892778359161,36.914985207124836],[-116.257927483481154,36.837942789753505],[-116.362985325351161,36.83560817104528],[-116.36998918147583,36.943000631623505],[-116.409677699515598,36.943000631623505],[-116.428354649181387,36.973350674830392],[-116.486720116886929,36.994362243204392],[-116.48438549817871,37.092416228949723],[-116.533412491051379,37.092416228949723],[-116.53808172846783,37.111093178615505],[-116.743528174791379,37.101754703782618],[-116.764539743165386,37.19747407081973],[-116.83224368570383,37.248835682400617],[-116.890609153409386,37.251170301108836],[-116.934966908865604,37.206812545652618],[-117.021347801069822,37.374905092644617],[-117.028351657194492,37.405255135851505],[-117.091386362316499,37.400585898435061],[-117.135744117772717,37.454282128724174],[-117.133409499064499,37.496305265472174],[-117.19877882289471,37.503309121596835],[-117.252475053183829,37.437939797766617],[-117.378544463427829,37.426266704225505],[-117.427571456300498,37.484632171931061],[-117.399556031801822,37.519651452554392],[-117.399556031801822,37.519651452554392],[-117.474263830464935,37.51264759642973],[-117.483602305297822,37.528989927387286],[-117.628348665207611,37.524320689970835],[-117.784768118658491,37.414593610684392],[-118.077762766540388,37.630545841194937],[-118.168812896161057,37.763619107563606],[-118.217839889033712,37.920038561014493],[-118.378928579901057,38.015757928051606],[-118.640405875221944,38.048442589966719],[-118.640405875221944,38.048442589966719],[-118.6567482061795,38.099804201547606],[-118.649744350054831,38.16750814408605],[-118.589044263641057,38.258558273706718],[-118.56803269526705,38.354277640743831],[-118.649943405496984,38.449685305925648],[-118.595567161693396,38.426453385192062],[-118.53871927044419,38.42064423688587],[-118.501644558759921,38.4380702801013],[-118.516474443433623,38.503864041138904],[-118.464569847075666,38.532871611902394],[-118.464569847075666,38.56186749193737],[-118.546134212781055,38.581191582438613],[-118.578265629574062,38.610167971906918],[-118.605453751475849,38.617893033558772],[-118.637585168268913,38.656505862247343],[-118.669716585061934,38.799192389210631],[-118.689489764626884,38.860806383117783],[-118.694433059518119,38.897364455039366],[-118.6252269310408,38.918521057348755],[-118.568379039791594,38.910828476971339],[-118.506587853651155,38.853107550517457],[-118.469513141966843,38.837707385096607],[-118.444796667510715,38.860806383117783],[-118.476928084303722,38.895440814903097],[-118.484343026640587,38.97811027936546],[-118.494229616423056,39.022289261200314],[-118.464569847075666,39.024209460701954],[-118.42255184050012,39.005005118796426],[-118.390420423707099,39.003084397777471],[-118.400307013489581,39.074116338897298],[-118.447268314956332,39.112482245400223],[-118.44232502006507,39.151785634321264],[-118.410193603272049,39.163284915249406],[-118.402778660935198,39.228412000635416],[-118.412665250717666,39.251383615863993],[-118.405250308380786,39.283913859565565],[-118.452211609847524,39.283913859565565],[-118.504116206205538,39.283913859565565],[-118.49917291131429,39.343194836503478],[-118.521417738324871,39.392875630279477],[-118.501644558759921,39.473054539803115],[-118.479399731749325,39.511202536153519],[-118.415136898163283,39.522642853102333],[-118.348402417131581,39.593149832307574],[-118.321214295229808,39.67119545502787],[-118.212461807622589,39.882047597344275],[-118.190216980612021,39.919022461972268],[-118.113595909797866,39.95881923177302],[-118.014730011973143,40.030773591148424],[-117.881261049909767,40.129114568057091],[-117.87878940246415,40.174454797397743]]]}},
{"type":"Feature","properties":{"fid":11,"region":"Central Great Basin","section":"Reno Section","source":"Tiehm & Nachlinger, Nevada Vascular Plants: An Annotated Checklist of the State's Botanical Diversity, Fig. 1"},"geometry":{"type":"Polygon","coordinates":[[[-120.013056971755233,40.074288079305042],[-119.958680727951631,40.085635115503358],[-119.874644714800624,40.115884633250559],[-119.840041650561957,40.119664877325484],[-119.837570003116369,40.191449579136624],[-119.778250464421546,40.178231783475496],[-119.723874220617958,40.085635115503358],[-119.706572688498625,40.042127875136558],[-119.649724797249434,40.011845583651755],[-119.625008322793235,39.928499982574394],[-119.590405258554583,39.907647705576849],[-119.545915604533477,39.898167298944685],[-119.494011008175477,39.845052783678973],[-119.395145110350754,39.772903028192417],[-119.39020181545952,39.72349378506587],[-119.392673462905165,39.688315634410948],[-119.372900283340215,39.606480927390592],[-119.316052392090981,39.593149832307574],[-119.264147795733024,39.595054431561877],[-119.232016378939974,39.55504685150823],[-119.110905654104712,39.543611873615191],[-119.071359294974826,39.509295633482338],[-119.081245884757294,39.457789480853442],[-119.115848948995932,39.440612287308646],[-119.25920450084179,39.415793305214088],[-119.469294533719292,39.371861146425793],[-119.476709476056172,39.33363678597172],[-119.42974817458942,39.316429001937053],[-119.392673462905165,39.27626104304565],[-119.343240513992768,39.228412000635416],[-119.323467334427846,39.169033850904604],[-119.325938981873435,39.134533189177368],[-119.363013693557747,39.100015615321617],[-119.358070398666499,39.076994505885374],[-119.343240513992768,39.063562055591873],[-119.348183808884031,38.979070985322949],[-119.412446642470087,38.971384972702417],[-119.417389937361307,38.946399670976305],[-119.414918289915704,38.875239447738146],[-119.42974817458942,38.863693230466076],[-119.417389937361307,38.819415359306092],[-119.409974995024442,38.790523644697373],[-119.402560052687633,38.750055564632653],[-119.335825571655917,38.724992393008243],[-119.34076886654718,38.665190881886417],[-119.266619443178641,38.647819789409553],[-119.23943132127684,38.659400985819325],[-119.224601436603123,38.709564531505947],[-119.143037070897705,38.70763581466862],[-119.088660827094145,38.694133339993606],[-119.049114467964259,38.711493196311871],[-119.0861891796485,38.798229247442023],[-119.041699525627394,38.832894149797063],[-118.95519186503077,38.857919418562517],[-118.937890332911437,38.882935883975826],[-118.950248570139536,38.938710113482017],[-118.932947038020231,38.977149560373483],[-118.895872326335919,38.984834947338335],[-118.843967729977976,38.936787593800013],[-118.819251255521792,38.886783789493315],[-118.767346659163806,38.759692903970333],[-118.774761601500657,38.657470916440573],[-118.754988421935707,38.603407860580482],[-118.69566888324087,38.541571603563],[-118.666009113893466,38.473877272484437],[-118.649943405496984,38.449685305925648],[-118.56803269526705,38.354277640743831],[-118.589044263641057,38.258558273706718],[-118.649744350054831,38.16750814408605],[-118.6567482061795,38.099804201547606],[-118.640405875221944,38.048442589966719],[-118.378928579901057,38.015757928051606],[-118.217839889033712,37.920038561014493],[-118.168812896161057,37.763619107563606],[-118.077762766540388,37.630545841194937],[-119.529443577970881,38.65632421943728],[-119.613296373491096,38.807259251373658],[-119.688763889459281,38.857570928685782],[-119.743268206547413,38.815644530925681],[-119.839698921395666,38.874341487789827],[-119.85227684072369,39.037854439054236],[-119.768424045203474,39.117514594798436],[-119.764231405427466,39.176211551662583],[-119.839698921395666,39.251679067630768],[-119.831313641843636,39.314568664270929],[-119.755846125875451,39.398421459791138],[-119.843891561171674,39.465503696207307],[-119.990633953332036,39.520008013295445],[-119.856469480499698,39.553549131503523],[-119.864854760051728,39.603860808815654],[-120.015789791988098,39.6625577656798],[-120.013056971755233,40.074288079305042]]]}},
{"type":"Feature","properties":{"fid":12,"region":"Sierra Nevada","section":"Sierra Nevada Section","source":"Tiehm & Nachlinger, Nevada Vascular Plants: An Annotated Checklist of the State's Botanical Diversity, Fig. 1"},"geometry":{"type":"Polygon","coordinates":[[[-120.015789791988098,39.6625577656798],[-119.864854760051728,39.603860808815654],[-119.856469480499698,39.553549131503523],[-119.990633953332036,39.520008013295445],[-119.843891561171674,39.465503696207307],[-119.755846125875451,39.398421459791138],[-119.831313641843636,39.314568664270929],[-119.839698921395666,39.251679067630768],[-119.764231405427466,39.176211551662583],[-119.768424045203474,39.117514594798436],[-119.85227684072369,39.037854439054236],[-119.839698921395666,38.874341487789827],[-120.01159715221209,39.002217000958133],[-120.015789791988098,39.6625577656798]]]}},
{"type":"Feature","properties":{"fid":13,"region":"Sierra Nevada","section":"Sierra Nevada Section","source":"Tiehm & Nachlinger, Nevada Vascular Plants: An Annotated Checklist of the State's Botanical Diversity, Fig. 1"},"geometry":{"type":"Polygon","coordinates":[[[-119.743268206547413,38.815644530925681],[-119.688763889459281,38.857570928685782],[-119.613296373491096,38.807259251373658],[-119.529443577970881,38.65632421943728],[-119.743268206547413,38.815644530925681]]]}},
{"type":"Feature","properties":{"fid":14,"region":"Mojave Desert","section":"Amargosa Section","source":"Tiehm & Nachlinger, Nevada Vascular Plants: An Annotated Checklist of the State's Botanical Diversity, Fig. 1"},"geometry":{"type":"Polygon","coordinates":[[[-117.784768118658491,37.414593610684392],[-117.628348665207611,37.524320689970835],[-117.483602305297822,37.528989927387286],[-117.474263830464935,37.51264759642973],[-117.399556031801822,37.519651452554392],[-117.427571456300498,37.484632171931061],[-117.378544463427829,37.426266704225505],[-117.252475053183829,37.437939797766617],[-117.19877882289471,37.503309121596835],[-117.133409499064499,37.496305265472174],[-117.135744117772717,37.454282128724174],[-117.091386362316499,37.400585898435061],[-117.028351657194492,37.405255135851505],[-117.021347801069822,37.374905092644617],[-116.934966908865604,37.206812545652618],[-116.890609153409386,37.251170301108836],[-116.83224368570383,37.248835682400617],[-116.764539743165386,37.19747407081973],[-116.743528174791379,37.101754703782618],[-116.53808172846783,37.111093178615505],[-116.533412491051379,37.092416228949723],[-116.48438549817871,37.092416228949723],[-116.486720116886929,36.994362243204392],[-116.428354649181387,36.973350674830392],[-116.409677699515598,36.943000631623505],[-116.36998918147583,36.943000631623505],[-116.362985325351161,36.83560817104528],[-116.257927483481154,36.837942789753505],[-116.143764470662916,36.79797706166601],[-116.226059035968035,36.727033470885729],[-116.220383548705612,36.707169265467257],[-116.177817394237451,36.701493778204835],[-116.138088983400493,36.72987121451694],[-116.121062521613226,36.721357983623307],[-116.160790932450183,36.661765367367877],[-116.28281390859226,36.630550187424554],[-116.234572266861676,36.582308545693969],[-116.101198316194754,36.562444340275491],[-116.055794418095374,36.474474287707949],[-116.089847341669909,36.440421364133414],[-116.075658623513846,36.312722900728915],[-116.243085497755303,36.272994489891964],[-117.784768118658491,37.414593610684392]]]}},
{"type":"Feature","properties":{"fid":15,"region":"Mojave Desert","section":"East Mountains Section","source":"Tiehm & Nachlinger, Nevada Vascular Plants: An Annotated Checklist of the State's Botanical Diversity, Fig. 1"},"geometry":{"type":"Polygon","coordinates":[[[-116.257927483481154,36.837942789753505],[-116.194892778359161,36.914985207124836],[-116.211235109316718,36.928992919374167],[-116.19722739706738,36.985023768371505],[-116.220573584149605,37.04572385478528],[-116.173881209985154,37.122766272156618],[-116.173881209985154,37.122766272156618],[-116.171546591276936,37.183466358570392],[-116.059484893282274,37.204477926944392],[-116.043142562324718,37.251170301108836],[-115.996450188160267,37.269847250774617],[-116.012792519117824,37.304866531397948],[-116.010457900409605,37.384243567477505],[-115.968434763661605,37.400585898435061],[-115.996450188160267,37.435605179058392],[-115.996450188160267,37.479962934514617],[-115.966100144953373,37.489301409347505],[-115.94508857657938,37.468289840973505],[-115.940419339162929,37.479962934514617],[-115.86104230308338,37.482297553222836],[-115.828357641168267,37.283854963023948],[-115.699953612216049,37.286189581732174],[-115.627580432261155,37.339885812021286],[-115.653261238051599,37.430935941641948],[-115.709292087048937,37.454282128724174],[-115.718630561881824,37.505643740305061],[-115.625245813552937,37.578016920259948],[-115.550538014889824,37.505643740305061],[-115.48283407235138,37.580351538968173],[-115.487503309767817,37.437939797766617],[-115.430305151416377,37.385410876831614],[-115.432639770124595,37.301364603335614],[-115.381278158543708,37.252337610462945],[-115.395285870793046,37.116929725386058],[-115.33692040308749,37.121598962802501],[-115.343924259212159,37.17062595567517],[-115.29489726633949,37.205645236298501],[-115.250539510883272,37.21264909242317],[-115.24120103605037,37.151949006009389],[-115.166493237387272,37.137941293760058],[-115.096454676140596,37.19163752404917],[-114.996066071687039,37.12860281892717],[-114.998400690395258,37.042221926722945],[-114.898012085941701,37.011871883516058],[-114.956790033483244,36.991665535988574],[-114.956790033483244,36.756132814598047],[-114.925574853539928,36.585868196725379],[-114.990842957057779,36.418441322483922],[-114.99935618795142,36.338984500810021],[-115.186647267611349,36.324795782653965],[-115.305832500122222,36.378712911646971],[-115.430693219895502,36.475196195108154],[-115.47042163073246,36.478033938739365],[-115.320021218278271,36.214123781036726],[-115.345560910959179,36.126153728469184],[-115.200835985767398,35.967240085121361],[-115.155432087668032,35.958726854227727],[-115.095839471412589,36.018319470483164],[-114.919899366277505,35.958726854227727],[-114.959627777114463,35.779949005461425],[-114.958208905298875,35.657926029319356],[-114.921318238093136,35.612522131219983],[-114.92415598172434,35.481985924184265],[-114.85605013457527,35.195373817431943],[-116.243085497755303,36.272994489891964],[-116.075658623513846,36.312722900728915],[-116.089847341669909,36.440421364133414],[-116.055794418095374,36.474474287707949],[-116.101198316194754,36.562444340275491],[-116.234572266861676,36.582308545693969],[-116.28281390859226,36.630550187424554],[-116.160790932450183,36.661765367367877],[-116.121062521613226,36.721357983623307],[-116.138088983400493,36.72987121451694],[-116.177817394237451,36.701493778204835],[-116.220383548705612,36.707169265467257],[-116.226059035968035,36.727033470885729],[-116.143764470662916,36.79797706166601],[-116.257927483481154,36.837942789753505]]]}},
{"type":"Feature","properties":{"fid":16,"region":"Mojave Desert","section":"Colorado River Section","source":"Tiehm & Nachlinger, Nevada Vascular Plants: An Annotated Checklist of the State's Botanical Diversity, Fig. 1"},"geometry":{"type":"Polygon","coordinates":[[[-114.898012085941701,37.011871883516058],[-114.844315855652596,37.056229638972276],[-114.690231020909934,37.231326042088945],[-114.524473092626152,37.320041553001388],[-114.49178843071104,37.282687653669832],[-114.447430675254822,37.282687653669832],[-114.414746013339709,37.280353034961614],[-114.358715164342371,37.287356891086276],[-114.36571902046704,37.238329898213614],[-114.335368977260146,37.221987567256058],[-114.291011221803927,37.22782411402661],[-114.28167274697104,37.26984725077461],[-114.216303423140815,37.276851106899272],[-114.178949523809266,37.31187038752261],[-114.132257149644815,37.293193437856829],[-114.062218588398153,37.304866531397941],[-114.037691548902885,36.174736115841846],[-114.105150657919353,36.128615884438098],[-114.128930710925403,36.028007967874053],[-114.231367862336057,35.998740210328151],[-114.317341900127147,36.049958786033486],[-114.333805013746712,36.09568965719896],[-114.390511293991906,36.130445119284715],[-114.458192983316806,36.103006596585431],[-114.536850081721411,36.135932823824575],[-114.64477493767194,36.128615884438098],[-114.736236680002875,36.07739730873277],[-114.723432036076545,36.018861793640966],[-114.7380659148495,35.974960157322109],[-114.666725755831365,35.863376831678352],[-114.690505808837401,35.840511396095629],[-114.67587193006446,35.750878888611297],[-114.692335043684025,35.728928070451872],[-114.668554990677976,35.688684903826257],[-114.668120217427699,35.653418853388011],[-114.63514553679029,35.606866363076371],[-114.648723346464521,35.542856688897864],[-114.67587896581297,35.511821695356765],[-114.59053273357496,35.358586414747613],[-114.59053273357496,35.30233548895437],[-114.547859617455956,35.213109882523725],[-114.547859617455956,35.162678018019449],[-114.571135862611783,35.125823963189397],[-114.633205849693965,35.121944588996762],[-114.617688352923423,35.10836677932253],[-114.586653359382325,35.096728656744617],[-114.584713672286,35.065693663203525],[-114.621567727116059,35.03853804385507],[-114.611869291634463,34.995864927736065],[-114.85605013457527,35.195373817431943],[-114.92415598172434,35.481985924184265],[-114.921318238093136,35.612522131219983],[-114.958208905298875,35.657926029319356],[-114.959627777114463,35.779949005461425],[-114.919899366277505,35.958726854227727],[-115.095839471412589,36.018319470483164],[-115.155432087668032,35.958726854227727],[-115.200835985767398,35.967240085121361],[-115.345560910959179,36.126153728469184],[-115.320021218278271,36.214123781036726],[-115.47042163073246,36.478033938739365],[-115.430693219895502,36.475196195108154],[-115.305832500122222,36.378712911646971],[-115.186647267611349,36.324795782653965],[-114.99935618795142,36.338984500810021],[-114.990842957057779,36.418441322483922],[-114.925574853539928,36.585868196725379],[-114.956790033483244,36.756132814598047],[-114.956790033483244,36.991665535988574],[-114.898012085941701,37.011871883516058]]]}}
]
}
