{"type": "FeatureCollection", "features": [{"type": "Feature", "properties": {"name": "Ash Meadows National Wildlife Refuge", "orgcode": 84554, "source": "USFWS National Wildlife Refuge System Boundaries (gis-fws.opendata.arcgis.com)", "place": "Ash Meadows National Wildlife Refuge"}, "geometry": {"type": "MultiPolygon", "coordinates": [[[[-116.321934356914, 36.4847006982898], [-116.321543632884, 36.4812625718884], [-116.321337721953, 36.4779281666073], [-116.321131813717, 36.4745937327003], [-116.320923044347, 36.4712594948491], [-116.320714328875, 36.4679253664127], [-116.316246183212, 36.4678491038164], [-116.311777982752, 36.4677728960488], [-116.311572351197, 36.4643994905575], [-116.311366721439, 36.4610261131228], [-116.311152587329, 36.4575134330587], [-116.308894473335, 36.4574627321421], [-116.308674478617, 36.4539683018629], [-116.308720961941, 36.450303785886], [-116.310982548822, 36.4503264857364], [-116.311004624921, 36.4484893407508], [-116.315437569201, 36.4485081593422], [-116.315431966408, 36.4503390557351], [-116.319881383994, 36.4503514573707], [-116.319859726511, 36.4467021918232], [-116.315443198943, 36.4466772905531], [-116.311026672273, 36.4466522216284], [-116.306508196699, 36.4466261829472], [-116.301989748075, 36.4466000019021], [-116.302044263236, 36.4429851270513], [-116.302098806246, 36.4393702499993], [-116.297671581539, 36.4391888508412], [-116.293244358628, 36.4390074779985], [-116.293211296134, 36.4354309972718], [-116.293178143809, 36.4318735949984], [-116.293144907042, 36.42830932947], [-116.293117496747, 36.4247624192346], [-116.288382294527, 36.4246621874511], [-116.288496032021, 36.4282055642287], [-116.283849498011, 36.428083526072], [-116.279718873655, 36.4280451778742], [-116.275258792168, 36.4280036096379], [-116.27077643336, 36.4279878492489], [-116.270988810365, 36.4315247212277], [-116.271203077425, 36.4350504849889], [-116.266746439181, 36.4350261111803], [-116.257816166567, 36.4351287239593], [-116.257571928116, 36.4315968506964], [-116.257324272474, 36.4280160061699], [-116.25704673617, 36.4243738674764], [-116.252706290516, 36.4244800188099], [-116.248365837676, 36.4245861692754], [-116.248287729162, 36.4208770584801], [-116.248208354023, 36.4171075921802], [-116.248128982478, 36.4133381250989], [-116.248049616323, 36.4095686536551], [-116.248222160231, 36.4058726854155], [-116.248394696054, 36.4021767134358], [-116.248141097158, 36.3983981082861], [-116.247887511736, 36.3946195009132], [-116.252265718073, 36.3943899124754], [-116.252296106283, 36.3906964163533], [-116.252326485509, 36.3870035380595], [-116.252344128421, 36.3833103982984], [-116.252361770435, 36.3796170910858], [-116.252443140732, 36.3761202428303], [-116.252524507435, 36.3726232308499], [-116.252412863913, 36.3689164300565], [-116.252301223985, 36.3652094620526], [-116.252144025098, 36.3614951889951], [-116.251986833398, 36.3577807393821], [-116.256559723522, 36.3576288962004], [-116.261137976587, 36.3574765231616], [-116.265716217975, 36.3573241498245], [-116.270356076605, 36.3573408896224], [-116.274995933438, 36.3573576279699], [-116.279638928984, 36.3573743778888], [-116.283947665905, 36.3573900433606], [-116.28846319231, 36.35738873899], [-116.292979265788, 36.3573872342251], [-116.297502200599, 36.3573857945702], [-116.302025135409, 36.3573843534683], [-116.306567865495, 36.3573458727121], [-116.31111059109, 36.3573073926603], [-116.31117304646, 36.3611169253361], [-116.311235505423, 36.3649264545573], [-116.315785250453, 36.3649815829151], [-116.320334998179, 36.3650367119571], [-116.320279279275, 36.3687545505737], [-116.320223557676, 36.3724723858568], [-116.320169128753, 36.3761931318287], [-116.320114696237, 36.3799138762939], [-116.324599978162, 36.380004450606], [-116.329085265477, 36.3800950248125], [-116.333567548826, 36.3801857146309], [-116.333567542538, 36.3801851845013], [-116.338050974832, 36.3802744906719], [-116.342535094338, 36.3802758959114], [-116.342571792314, 36.3839312343317], [-116.342608492086, 36.3875864059916], [-116.342578937514, 36.3912806985202], [-116.342549379347, 36.394974824898], [-116.347007706424, 36.3950441935542], [-116.347181107325, 36.3987099540175], [-116.347354514515, 36.4023757143871], [-116.351911172979, 36.4023607123131], [-116.356474371179, 36.4023762703944], [-116.356646584507, 36.4060139307935], [-116.356818806819, 36.4096515893402], [-116.356714355209, 36.4135122238672], [-116.356609899108, 36.4173728551961], [-116.356505438515, 36.4212334847368], [-116.356400134404, 36.4251251009649], [-116.360906481823, 36.4251681821468], [-116.365412831038, 36.4252112633048], [-116.36991694794, 36.4252537951008], [-116.369971596951, 36.4289234325778], [-116.369963232737, 36.4325295342397], [-116.369962869818, 36.4361368567094], [-116.369962506, 36.4397439847824], [-116.37455959494, 36.4397634125448], [-116.379162376505, 36.4397637587077], [-116.379120040702, 36.4433529989504], [-116.3790777049, 36.4469420724458], [-116.379035423894, 36.4505341737047], [-116.378993115041, 36.4541261079079], [-116.379225567595, 36.4577442076815], [-116.374393078728, 36.4578071137799], [-116.369862573814, 36.4577676842208], [-116.365332094952, 36.4577280884642], [-116.365565600332, 36.4613461307349], [-116.365792298279, 36.4648589803426], [-116.366019024073, 36.4683718297229], [-116.36145626515, 36.468322178347], [-116.361657128447, 36.4718258612814], [-116.361857989948, 36.4753293497297], [-116.36205766208, 36.4788288370946], [-116.362257327025, 36.4823281873756], [-116.357748346644, 36.4823213394228], [-116.353250308641, 36.4823222978906], [-116.348752271537, 36.4823232563585], [-116.349083160582, 36.4856232175979], [-116.349414079271, 36.4889231783894], [-116.349743411536, 36.4922074448103], [-116.345256597983, 36.4922391243716], [-116.340769754786, 36.492270609651], [-116.340437282909, 36.488978370437], [-116.335909988575, 36.4887687755028], [-116.331382722986, 36.4885590131679], [-116.326853901516, 36.4883490010973], [-116.322325081842, 36.4881388223448], [-116.321934356914, 36.4847006982898]]], [[[-116.28715107887, 36.4949989807332], [-116.286976949435, 36.4914782444017], [-116.29144468367, 36.4915547589028], [-116.291649702574, 36.4950679660969], [-116.28715107887, 36.4949989807332]]], [[[-116.312269609147, 36.474547842274], [-116.312023808526, 36.4711604392086], [-116.316473425538, 36.4712099522358], [-116.316700698407, 36.4745708015765], [-116.312269609147, 36.474547842274]]]]}}, {"type": "Feature", "properties": {"name": "Spring Mountains National Recreation Area", "place": "Spring Mountains National Recreation Area", "source": "USFS Ranger District Boundaries (Feature Layer)"}, "geometry": {"type": "Polygon", "coordinates": [[[-115.85401325496618, 36.45148281448253], [-115.8586032454194, 36.45149317395526], [-115.86319323587263, 36.451503553658505], [-115.86778319668146, 36.451513913128466], [-115.86776769714953, 36.455050403710864], [-115.86775215809175, 36.458586894161776], [-115.86773662801713, 36.46212334471722], [-115.86772108806105, 36.46565983482253], [-115.8722907792838, 36.465710334599315], [-115.87686047050654, 36.465760824229086], [-115.8814301509495, 36.46581132394007], [-115.88599984217228, 36.46586182361824], [-115.88600925202488, 36.46942155408197], [-115.88601869242021, 36.47298126483546], [-115.88602810317113, 36.47654099485893], [-115.88602988273371, 36.47721275468501], [-115.8860375229052, 36.48010073545317], [-115.89059954431205, 36.480139345398186], [-115.8951615648206, 36.48017794448947], [-115.89524772493444, 36.48376026513253], [-115.89533389582807, 36.48734260576052], [-115.89542005594193, 36.49092456624164], [-115.89550622593723, 36.49450654668046], [-115.89552160689152, 36.49812972676702], [-115.89553699682897, 36.501752907029065], [-115.89555240742769, 36.5053775972778], [-115.89556506738498, 36.50835710794526], [-115.89635845764728, 36.50835675775635], [-115.90028426881373, 36.508342157405124], [-115.90112106836551, 36.50833902736559], [-115.90500342981831, 36.508324567086625], [-115.90588367998208, 36.508327416975575], [-115.90956273022817, 36.508303507364616], [-115.91040562035757, 36.50829804730204], [-115.91412206118078, 36.50827391673788], [-115.9149275310887, 36.508273376652156], [-115.91868216198954, 36.50824876664577], [-115.91944832162064, 36.50824373619315], [-115.9232422726798, 36.508218876351386], [-115.92396909328797, 36.50822117604958], [-115.92757886366273, 36.5082300658083], [-115.92831036359523, 36.50823186585437], [-115.93191549417156, 36.50824076572048], [-115.932651624021, 36.50824091590478], [-115.93625259539758, 36.5082498150478], [-115.93699331563812, 36.508251664914155], [-115.9405896957253, 36.50826056477799], [-115.94133496593275, 36.50826174531313], [-115.94494834663665, 36.508235424790065], [-115.94569364648855, 36.508229995048396], [-115.94930697778511, 36.5082036947317], [-115.9500523072814, 36.50820324417845], [-115.95374063802272, 36.50819161427298], [-115.95448598818024, 36.5081911543332], [-115.95775058899193, 36.50818208405981], [-115.95892950922472, 36.50818701415279], [-115.9622106596989, 36.50818997379694], [-115.9633681398408, 36.50819101353529], [-115.9666707106429, 36.50819399339638], [-115.96780680099958, 36.50819414358081], [-115.97113123140582, 36.508197183371145], [-115.97239137191671, 36.50819831264242], [-115.97559172252433, 36.50820124268247], [-115.97697598235969, 36.50819602233013], [-115.98035808281053, 36.50822712277266], [-115.98160287380814, 36.5082385526677], [-115.98512441435066, 36.508270912330524], [-115.98622972393416, 36.508272321752095], [-115.98965141493619, 36.508293302058235], [-115.99076422545227, 36.50830012172151], [-115.99417840564023, 36.50832107169448], [-115.99529868564791, 36.508341561722894], [-115.99893126694266, 36.50848798100604], [-116.00005796631137, 36.50853341088512], [-116.00368413722829, 36.50867961102843], [-116.00481729728051, 36.50868605086682], [-116.00843461799523, 36.50883162038572], [-116.00957438874964, 36.50887748039548], [-116.01318506911775, 36.509022750632816], [-116.0132069691461, 36.506040330410045], [-116.01323921866481, 36.50242481001601], [-116.0133039180265, 36.498819179297996], [-116.01336857786232, 36.49521352872328], [-116.01347663710618, 36.49166346877088], [-116.01358471701128, 36.488113378264416], [-116.01369277715342, 36.48456331789833], [-116.01380083639725, 36.481013227032406], [-116.01389636593953, 36.477486436850626], [-116.01394995583613, 36.475507086594824], [-116.0139918658374, 36.47395965663339], [-116.01408739537965, 36.47043286618311], [-116.01418291504042, 36.46690608575421], [-116.0142465247457, 36.46338874490095], [-116.01431016409538, 36.45987137452492], [-116.01437377380066, 36.45635400427331], [-116.0144373835059, 36.45283666379865], [-116.01448205313174, 36.44932151367462], [-116.01452671287608, 36.44580634300347], [-116.0145713528575, 36.44229119300139], [-116.01457531263128, 36.44197928303139], [-116.01461602248331, 36.43877604274083], [-116.01463801234317, 36.43524712226032], [-116.01466001208446, 36.431718231405384], [-116.01468204147018, 36.428189301543284], [-116.0147040412115, 36.42466038112559], [-116.01017925048158, 36.42473920087191], [-116.00565445975167, 36.42481805161935], [-116.00112966902176, 36.42489687192844], [-115.99660492769917, 36.42497572179293], [-115.99213957669498, 36.42499489231541], [-115.98767423647057, 36.42501403247492], [-115.98320888546637, 36.42503319286852], [-115.9787435344622, 36.425052353257435], [-115.97869412442662, 36.42153771252241], [-115.97869270419015, 36.42143682239807], [-115.97868937413541, 36.42120163303158], [-115.97864117413052, 36.417795732660856], [-115.97854725347094, 36.4141392815612], [-115.97845333281133, 36.41048286147757], [-115.97388720251038, 36.41043069188036], [-115.96932107131106, 36.41037852224812], [-115.96478121044396, 36.41032666200445], [-115.96475495089156, 36.410326362702186], [-115.96018881969229, 36.410274192999935], [-115.96012525939436, 36.40658191230248], [-115.96009326948878, 36.4047229021039], [-115.96006172874083, 36.40288962170218], [-115.9599981684429, 36.39919737112055], [-115.95993461802644, 36.395505081055305], [-115.95553751742429, 36.395454361321534], [-115.95473839770709, 36.39544496114202], [-115.95407112731743, 36.39543712139139], [-115.9510294263755, 36.395401301631665], [-115.94649818574183, 36.39530610155733], [-115.9419669451082, 36.39521093245944], [-115.94197547461182, 36.391573561805664], [-115.94198403465815, 36.38793620101803], [-115.9419925938062, 36.38429883060218], [-115.94200111342833, 36.3806614607126], [-115.9420784529844, 36.377019840045065], [-115.94215579254048, 36.37337818991212], [-115.94218735305135, 36.371891989747866], [-115.94223312221509, 36.36973656893002], [-115.94231046266947, 36.36609491854102], [-115.93773389124995, 36.36603277940213], [-115.93613007148103, 36.36601100902704], [-115.93315732072874, 36.36597060910894], [-115.92858077985196, 36.365908459743665], [-115.92400420843241, 36.36584629007453], [-115.92400179825252, 36.36221978934225], [-115.9239993584282, 36.35859327876161], [-115.9239969374685, 36.35496675836152], [-115.9239944976442, 36.351340258557876], [-115.92402633753116, 36.347711967653325], [-115.92403294733498, 36.34695741799696], [-115.92405816663828, 36.3440836777064], [-115.9240900065252, 36.340455416968034], [-115.92412181586943, 36.33682712685812], [-115.92415787604156, 36.333267396037016], [-115.92419501509035, 36.32964055575812], [-115.92425362477276, 36.326012405313136], [-115.92431221469222, 36.322384255296605], [-115.92444416463104, 36.31874963421096], [-115.92457608402711, 36.31511501373526], [-115.92470803396594, 36.311480413444535], [-115.92483998300646, 36.307845793557355], [-115.9202590826056, 36.30785584352789], [-115.91567819208619, 36.30786591376651], [-115.911097290787, 36.30787596445836], [-115.90651639038612, 36.307886034694405], [-115.90649351029585, 36.306421234225425], [-115.90645952972358, 36.304245114053856], [-115.90640800954542, 36.30094627396125], [-115.90640266906104, 36.30060421382829], [-115.90634580929681, 36.29696331305505], [-115.90628894863427, 36.29332239293951], [-115.90172349745967, 36.29339840331105], [-115.89715804718338, 36.293474423021024], [-115.89544404634991, 36.29350298342898], [-115.89259259600875, 36.293550443381044], [-115.88802714573244, 36.29362646366693], [-115.88355794454893, 36.293608694352585], [-115.87908874336544, 36.29359093444668], [-115.87461954308026, 36.293573174536725], [-115.87015035177821, 36.29355541534672], [-115.86568345118015, 36.2936265751686], [-115.86121653081915, 36.29369775592255], [-115.85674960955986, 36.29376893588757], [-115.85228271884328, 36.29384009623874], [-115.84804588846757, 36.29380005637635], [-115.84354195751688, 36.293755246546695], [-115.83901298602763, 36.29367234731657], [-115.83448402531818, 36.293589417588784], [-115.82989616477049, 36.29356446798719], [-115.82530832398572, 36.29353951765358], [-115.82528763308977, 36.28987377731998], [-115.82526697273654, 36.28620803709892], [-115.82524631238331, 36.282541966813845], [-115.82522562238572, 36.278875876395865], [-115.82061845165268, 36.27883183648302], [-115.81601127103814, 36.27878776685416], [-115.81139837983339, 36.27878525686521], [-115.80678544910272, 36.27878274760032], [-115.80217252825358, 36.27878023761121], [-115.79755962716733, 36.27877769793079], [-115.79759952673895, 36.275102237608536], [-115.79763945685335, 36.271426757055885], [-115.79767938606945, 36.267751296860865], [-115.79771927575962, 36.26407580635607], [-115.79784473537049, 36.26038342571059], [-115.79797016533699, 36.25669101539247], [-115.7980955953035, 36.25299864497298], [-115.79822103425316, 36.24930627464501], [-115.79812676414892, 36.24578799441519], [-115.79802449364874, 36.242125534034344], [-115.79781819374715, 36.238427683177704], [-115.79761189294717, 36.23472980303678], [-115.79732214225061, 36.230937672316344], [-115.79703239245235, 36.22714557218455], [-115.79674264175577, 36.22335345195209], [-115.79645288117773, 36.219561321071865], [-115.79189396075522, 36.219534311343196], [-115.7873350394344, 36.21950729218373], [-115.78272641882046, 36.21966936206754], [-115.77811780808804, 36.21983143234034], [-115.7781858177416, 36.21614835213465], [-115.77825379775071, 36.212465241323045], [-115.77832180740421, 36.208782141247795], [-115.77838978651504, 36.20509906064017], [-115.7739115958905, 36.205139801248876], [-115.76943339538447, 36.2051805614075], [-115.76495516433575, 36.20522132154491], [-115.76047696382972, 36.20526208166109], [-115.76052166309995, 36.201526481645764], [-115.76056634260723, 36.197790870813854], [-115.76061104277576, 36.19405527094567], [-115.7606557124016, 36.19031966032573], [-115.76061508160129, 36.18659936972194], [-115.76057444091951, 36.18287903943584], [-115.76056010111263, 36.18156602945178], [-115.76053381101752, 36.179158708649446], [-115.76049317033576, 36.17543841872772], [-115.75606519014568, 36.17535014906628], [-115.75163720905734, 36.17526185900165], [-115.74720919832457, 36.17517360944511], [-115.74278117771031, 36.17508534963722], [-115.73835419644683, 36.1750555501915], [-115.73389156554134, 36.175025190204366], [-115.72943838491263, 36.17495649006674], [-115.72498516385967, 36.1748878203246], [-115.72503778357577, 36.17115475023511], [-115.72504089354328, 36.170934069995454], [-115.72509040329187, 36.16742166983338], [-115.72514299336353, 36.16368858930416], [-115.72519561307963, 36.1599555086801], [-115.72516592196284, 36.15630676843965], [-115.7251367617504, 36.15268868836992], [-115.72507810176236, 36.14907810786511], [-115.725019440876, 36.14546749751594], [-115.725019970882, 36.1454212570045], [-115.72506023067811, 36.14185819651532], [-115.72510105102293, 36.13824889631464], [-115.72514183992674, 36.13463956574666], [-115.72518264949177, 36.131030265782385], [-115.72513457974257, 36.12740779531993], [-115.72508652885804, 36.123785294812635], [-115.7250384492274, 36.12016283467361], [-115.72499039834285, 36.116540333662684], [-115.724984517971, 36.112912393244734], [-115.72497863759915, 36.10928442311686], [-115.72497275722732, 36.10565646249688], [-115.72496687685546, 36.10202852230336], [-115.72051299643913, 36.101960462257814], [-115.71605912500594, 36.1018924326375], [-115.71160521494521, 36.101824373199875], [-115.70715134351205, 36.10175634346167], [-115.70719568345616, 36.09811124269992], [-115.70724002340026, 36.0944661325331], [-115.70728437322583, 36.09082102242716], [-115.70732871227163, 36.0871759116867], [-115.7073296617909, 36.08352078106697], [-115.70733062208994, 36.079865620628475], [-115.70733157160917, 36.07621048049509], [-115.70733252112842, 36.072555320039676], [-115.7028492604124, 36.072533150541126], [-115.6983659996964, 36.07251098031018], [-115.69388272820059, 36.072488810799086], [-115.68939946748459, 36.07246665072082], [-115.68486933716864, 36.07241190106953], [-115.68033918619142, 36.07235717171048], [-115.67580902533274, 36.072302421982975], [-115.67127887435552, 36.07224767221737], [-115.66674021363762, 36.072236452736554], [-115.66220159244558, 36.07222519259327], [-115.65766293172769, 36.07221397310924], [-115.65312431143397, 36.07220272312795], [-115.6486202502276, 36.0724837136912], [-115.6441161791397, 36.07276467420735], [-115.63961211883161, 36.07304566421515], [-115.6351080881679, 36.073326624902066], [-115.63085596756774, 36.07337976493335], [-115.62611811621538, 36.073443705293656], [-115.62172792545438, 36.07310854549925], [-115.61733774457484, 36.072773405332974], [-115.61287698396174, 36.0727645761864], [-115.60841621256887, 36.072755765916945], [-115.60395545195577, 36.072746926603195], [-115.59949469134268, 36.07273811705787], [-115.5949564007307, 36.072772836811474], [-115.5904181101187, 36.072807527506534], [-115.58587983926962, 36.07284224795554], [-115.58134154775932, 36.07287693789389], [-115.581305777743, 36.069215447638264], [-115.5812701469656, 36.065559477033815], [-115.58118810652563, 36.0618733967836], [-115.58110605620419, 36.05818729634588], [-115.58105236659462, 36.05440713579296], [-115.58099867608671, 36.050626975240334], [-115.58094499546029, 36.04684678494272], [-115.58089130495239, 36.04306662449088], [-115.58093659441575, 36.0392924343411], [-115.58098190454035, 36.035518223833556], [-115.58102722364814, 36.0317440329543], [-115.58107253377274, 36.02796981233828], [-115.5811301831561, 36.0242419320066], [-115.58118786308218, 36.020514022052616], [-115.58124551246554, 36.01678613118663], [-115.5813031923916, 36.01305822093227], [-115.58135465238267, 36.009373750314346], [-115.58140611147542, 36.0056892797143], [-115.58145756158498, 36.00200478954165], [-115.5815090305592, 35.99832032924524], [-115.57697541028833, 35.998308959688785], [-115.57244177923772, 35.99829759957873], [-115.56790818861127, 35.99828621039624], [-115.56337456744214, 35.99827485028285], [-115.56360693735162, 35.99462888958406], [-115.56383931714257, 35.99098296967621], [-115.56407169693355, 35.987337019362215], [-115.56430409648742, 35.983691068471146], [-115.56431935616916, 35.98008680826633], [-115.56433475598807, 35.976460777923435], [-115.56435393501938, 35.97283434762391], [-115.56437311494903, 35.96920795719919], [-115.56439248442318, 35.96557864678499], [-115.56441188444006, 35.96194935568544], [-115.56443125391421, 35.958320045394785], [-115.56445062338835, 35.95469076538788], [-115.56447738330236, 35.95106381511483], [-115.56450414321637, 35.947436864133614], [-115.5645309228933, 35.94380991392855], [-115.56455768280729, 35.94018296380217], [-115.56005193186984, 35.94018418348962], [-115.55554613062671, 35.940185403904344], [-115.55104036980778, 35.94018660468186], [-115.54653460898884, 35.94018782436924], [-115.54653819865672, 35.936561184419894], [-115.54654179820608, 35.93293454390998], [-115.54654541841667, 35.92930792323653], [-115.54654900808454, 35.92568128315048], [-115.54655237766517, 35.92204772217104], [-115.5465557472458, 35.91841416229725], [-115.54655911682643, 35.9147805715477], [-115.54656248640707, 35.91114701106391], [-115.5412648157494, 35.91151520151931], [-115.53596717473616, 35.91188337207219], [-115.53066950318019, 35.912251572196865], [-115.52537186306527, 35.91261974296076], [-115.52102027201371, 35.91264265299195], [-115.51629856069205, 35.912669323027515], [-115.51130866991872, 35.912724583818914], [-115.50631878902688, 35.912779864215736], [-115.5010248077501, 35.912972204132686], [-115.49573080760871, 35.91316455449534], [-115.49043680656898, 35.91335686510261], [-115.48514281541073, 35.913549205071895], [-115.48070800443126, 35.913470335897294], [-115.47627317368882, 35.913391455730846], [-115.47183837259082, 35.913312606042844], [-115.46740353196695, 35.913233726446705], [-115.46294045100547, 35.913255096802345], [-115.4584773403996, 35.91327649698186], [-115.45401426931961, 35.913297886969815], [-115.44955117847667, 35.913319257308125], [-115.4450483183178, 35.91341859769353], [-115.44054546714207, 35.91351791831036], [-115.43604260608487, 35.91361722861684], [-115.431539745926, 35.913716538798695], [-115.43147932613829, 35.91736417941411], [-115.43141890635059, 35.92101181915029], [-115.43135847668142, 35.92465946015951], [-115.43129805689375, 35.92830710022896], [-115.4313691774131, 35.93199857044145], [-115.43144031769539, 35.935690041403454], [-115.43151142743496, 35.93938151162887], [-115.43158253807285, 35.943073012359356], [-115.4316138084279, 35.946590602206115], [-115.43164508866441, 35.95010818308911], [-115.43167635901943, 35.95362577316178], [-115.4317076293745, 35.95714336367002], [-115.43637663025024, 35.95698016333823], [-115.44104563112595, 35.95681699320956], [-115.4457146320017, 35.95665379293064], [-115.45038362299596, 35.95649062285486], [-115.45500445351122, 35.95634056231108], [-115.45962528492478, 35.956190502209346], [-115.46424611544002, 35.95604044182256], [-115.46886691631087, 35.955890381150645], [-115.4734691373267, 35.955764371006865], [-115.47807135834253, 35.95563837084226], [-115.48267357846005, 35.95551236029644], [-115.4872757895944, 35.95538638009043], [-115.4875773198993, 35.95892314080141], [-115.4878788502042, 35.962459890742416], [-115.48818038050909, 35.965996641520256], [-115.488481910814, 35.96953340183154], [-115.4887089617987, 35.973150262335714], [-115.48893605230927, 35.9767670923436], [-115.48905724222759, 35.98038890257921], [-115.4891818726935, 35.98406493321836], [-115.4894023534002, 35.987796343997886], [-115.48962282332711, 35.99152773384968], [-115.48984329415235, 35.99525914489838], [-115.49006380450345, 35.99899052478162], [-115.49027529487081, 36.00273521545568], [-115.49048681488254, 36.00647987582315], [-115.49059259510052, 36.00835221634242], [-115.49069834567409, 36.01022455599487], [-115.49080411601057, 36.01209690640273], [-115.49090986568581, 36.01396924648901], [-115.49082904605632, 36.01771029688775], [-115.49074822642686, 36.02145137750392], [-115.49522763696355, 36.02158055735149], [-115.4997070385171, 36.02170954735708], [-115.49959977877386, 36.02543743780275], [-115.49949250914916, 36.029165318233], [-115.50394546969063, 36.02928121768661], [-115.50839846077483, 36.02939710752544], [-115.50919929088435, 36.02939839702974], [-115.51292561137899, 36.02940432729649], [-115.51745276198318, 36.02941152672538], [-115.52197989282439, 36.02941833675975], [-115.52635759340968, 36.02942486637185], [-115.5263122437592, 36.03313130664218], [-115.52626689410872, 36.03683771706322], [-115.52631986506607, 36.04054860769128], [-115.52633503491629, 36.0416120977625], [-115.52637282524366, 36.04425948832739], [-115.52635808568647, 36.04794948842039], [-115.52634335601074, 36.05163947896977], [-115.52632861645355, 36.05532947955393], [-115.52631388677787, 36.059019449472274], [-115.52632334693611, 36.062704110138746], [-115.52633280709436, 36.066388770351416], [-115.52635720803244, 36.07004655108194], [-115.52636218739406, 36.07079222092454], [-115.52636823754749, 36.071696591384146], [-115.52638163771658, 36.07370249175928], [-115.53102954884439, 36.07358707083109], [-115.53567745009074, 36.073471660624655], [-115.54032536032022, 36.07335625024886], [-115.54497326156655, 36.07324084042974], [-115.545177281544, 36.07685686070762], [-115.54538128175851, 36.08047291074168], [-115.54558530263427, 36.08408896145911], [-115.54578929296729, 36.08770501210415], [-115.54602889341649, 36.091311561938696], [-115.54626850374719, 36.094918143001415], [-115.54650810419639, 36.09852469283597], [-115.54674771452707, 36.10213127311107], [-115.5469437646513, 36.105743623960294], [-115.54713983543678, 36.109355984334336], [-115.54733588556104, 36.11296833460811], [-115.54753193568527, 36.11658069507226], [-115.54773554603095, 36.120201085502636], [-115.54793911685073, 36.12382149620661], [-115.54811534744485, 36.12695551613059], [-115.5481359673739, 36.12732219612392], [-115.548142697552, 36.12744187636127], [-115.54834629711789, 36.131062256413706], [-115.54879538828459, 36.13468530693312], [-115.54924446867155, 36.138308327299676], [-115.54969355893996, 36.14193134795614], [-115.55014263932689, 36.145554398614216], [-115.55033285938497, 36.14919169876679], [-115.55052306956152, 36.15282896878383], [-115.55061890003941, 36.156460939278666], [-115.55070741104436, 36.15995104968676], [-115.55004983078165, 36.15995481023989], [-115.54973314050802, 36.16366675012262], [-115.54941645113269, 36.16737872092685], [-115.54909977163886, 36.17109066097618], [-115.54878308136524, 36.174802642031544], [-115.54877445214859, 36.17848963202155], [-115.54876583281344, 36.18217663267734], [-115.54875721257999, 36.18586362293994], [-115.54874858336336, 36.189550623804145], [-115.54872963340244, 36.1932494841031], [-115.54871067356005, 36.1969483342466], [-115.54869171461598, 36.200647164780484], [-115.54867276465507, 36.204346024966455], [-115.54421308381696, 36.20441918550995], [-115.53975339309736, 36.204492345985], [-115.53529371225925, 36.204565536111105], [-115.53083400177671, 36.20463870659745], [-115.5308403016618, 36.20833278710815], [-115.53084662220812, 36.21202686720896], [-115.53085291221176, 36.21572093744628], [-115.53085920311368, 36.219415018082024], [-115.52639574216487, 36.21942718838737], [-115.52192559146212, 36.219439408696786], [-115.51745954067032, 36.21945531857725], [-115.51299349975996, 36.21947125889294], [-115.51302287017819, 36.22316728940758], [-115.51305225047786, 36.22686328006908], [-115.51308166042193, 36.230559280849974], [-115.51311103084018, 36.23425530113668], [-115.51316613170307, 36.2379171912456], [-115.51322123166763, 36.24157910183173], [-115.51325314162318, 36.245222932310064], [-115.51328535251432, 36.24888873288517], [-115.51328731263825, 36.25248077293296], [-115.5132892431178, 36.25607286371999], [-115.51329116371589, 36.25966493349907], [-115.51329311395837, 36.26325699455723], [-115.5131938339498, 36.2668559145391], [-115.51314418406405, 36.268655384764294], [-115.5130945341783, 36.270454814971885], [-115.51299525506805, 36.27405374579994], [-115.51289597505945, 36.27765263601935], [-115.51302590558554, 36.28124347648827], [-115.5131558361116, 36.28483431686519], [-115.51328572621348, 36.28842512743327], [-115.51341565673954, 36.292015967539506], [-115.51340974672328, 36.29573674767625], [-115.51340383760534, 36.29945753859196], [-115.5133979275891, 36.30317831853413], [-115.51339201757284, 36.30689910918901], [-115.5130076482257, 36.31061319943896], [-115.51262330852296, 36.31432730024952], [-115.51223896882024, 36.31804139059621], [-115.5118546291175, 36.32175549143744], [-115.51138188980092, 36.32540758171123], [-115.51090915946749, 36.329059712157026], [-115.51067312982151, 36.33270175274974], [-115.51044541049026, 36.33627981319084], [-115.51463841116491, 36.33660108299361], [-115.51883144148398, 36.33692233265686], [-115.52317178293326, 36.337056162291645], [-115.52733348360849, 36.33717766172399], [-115.53207397421117, 36.33710226135587], [-115.53681446481383, 36.337026861638456], [-115.54155495631483, 36.33695149079339], [-115.54629545679896, 36.336876090929984], [-115.54622470728383, 36.34038068114582], [-115.54615395776867, 36.34388527140834], [-115.54608319837206, 36.34738986169012], [-115.5460124479586, 36.35089442230029], [-115.54584352875257, 36.35440796261725], [-115.54567458888528, 36.357921473127114], [-115.54550565889949, 36.361434983466054], [-115.54533674957493, 36.364948484202664], [-115.54513240979725, 36.36847321459358], [-115.54492804037517, 36.37199794516261], [-115.5447237005975, 36.375522675158635], [-115.5445193608198, 36.37904741540254], [-115.54446995078423, 36.3825904160804], [-115.5444205012228, 36.38613339636183], [-115.54437109208553, 36.389676406841524], [-115.54432164252408, 36.39321937734528], [-115.54418025218992, 36.396770327513764], [-115.5440388627541, 36.40032128826496], [-115.5438974733183, 36.403872208235], [-115.54375608298413, 36.40742315897607], [-115.543667383333, 36.41102208913001], [-115.54357869446163, 36.41462103979277], [-115.54352764410234, 36.41823326057717], [-115.54352002459208, 36.4187813004722], [-115.5434986545698, 36.420320000524335], [-115.54347866435978, 36.421759080781385], [-115.54796036560047, 36.421749760405724], [-115.55244209648556, 36.42174044002901], [-115.5569237968279, 36.42173111965111], [-115.5614054980686, 36.421721799272156], [-115.56585977913353, 36.42164850913346], [-115.57031407996142, 36.4215752189256], [-115.57476836012803, 36.42150192864857], [-115.5792226708374, 36.42142863830235], [-115.58367328228441, 36.42129351819377], [-115.58812387307016, 36.42115836749029], [-115.59257448361888, 36.4210232476343], [-115.59702510404902, 36.42088812682032], [-115.6014675255556, 36.42083422719235], [-115.60590996592678, 36.42078034632119], [-115.61035238653503, 36.4207264762555], [-115.61479480804161, 36.42067257579246], [-115.61925666819259, 36.42067309552594], [-115.62371850947899, 36.420673575502335], [-115.62819231991818, 36.420679095230604], [-115.6326393210361, 36.42068460483849], [-115.63711144174427, 36.42067276445789], [-115.64158355257095, 36.42066088431838], [-115.64605564363474, 36.42064904393417], [-115.65052775446144, 36.4206371934281], [-115.65501579511309, 36.42066137369196], [-115.65950385552766, 36.42068555322543], [-115.66399188719615, 36.42070971251145], [-115.66847994761072, 36.42073389275273], [-115.67295597868534, 36.42082624254097], [-115.67743200886162, 36.4209186117365], [-115.68190807047894, 36.42101096202793], [-115.68638411053672, 36.42110331148671], [-115.69082400148912, 36.42134804132228], [-115.69526392298424, 36.42159278122926], [-115.69970381303834, 36.42183751096789], [-115.70414370399074, 36.422082250055034], [-115.7085888752404, 36.4221414602625], [-115.71303402582879, 36.422200640065434], [-115.71747919707845, 36.42225981982321], [-115.72192433778537, 36.42231902917242], [-115.72187487744412, 36.42589677974417], [-115.7218254278827, 36.42947452013111], [-115.72244328823682, 36.432654980373535], [-115.72306112882798, 36.43583544111648], [-115.72693637023382, 36.43633810067408], [-115.73081161074136, 36.436840730236064], [-115.73581554128424, 36.43677643037959], [-115.74037394248052, 36.436718019806406], [-115.74494177329233, 36.43674397942418], [-115.7495096139856, 36.436769939033276], [-115.75402411451392, 36.436816148850475], [-115.75853862582204, 36.43686237887587], [-115.76312414625843, 36.43689367851273], [-115.76770968735606, 36.43692500776787], [-115.77229520779244, 36.43695631749735], [-115.77632635900235, 36.436983867707276], [-115.77688075877153, 36.436987647449925], [-115.77689688892077, 36.43864229774732], [-115.77691538972407, 36.44054002763267], [-115.77695001977827, 36.444092378165195], [-115.77698464983247, 36.44764475899917], [-115.77701928078498, 36.451197139031294], [-115.77703185091076, 36.45474423936533], [-115.77704442103652, 36.458291340046394], [-115.7770569911623, 36.4618384699449], [-115.77706957206786, 36.465385570510776], [-115.78163997295968, 36.46541596064845], [-115.78621038373298, 36.46544633993758], [-115.79078079450628, 36.46547673005137], [-115.79535117563518, 36.465507119430846], [-115.79529755519587, 36.46906697020806], [-115.79524393565488, 36.47262682004848], [-115.79519031611386, 36.47618667109055], [-115.79513668669142, 36.479746490801446], [-115.79970454714764, 36.47970316111249], [-115.8042723986207, 36.47965979022778], [-115.80884024919543, 36.479616460490284], [-115.81340810965165, 36.47957309027937], [-115.81798546080883, 36.47959789936623], [-115.82256284161042, 36.47962269905521], [-115.82714020264908, 36.479647498736206], [-115.83171755290795, 36.479672299131586], [-115.83432667371807, 36.479694598894945], [-115.83627607447843, 36.4797112184371], [-115.84083459515067, 36.47975012833309], [-115.84535861602437, 36.479773897965686], [-115.8493133367733, 36.47979301738957], [-115.84931407608678, 36.476250367633014], [-115.84931479563733, 36.47270767656055], [-115.84931550530641, 36.46916499620808], [-115.84931622485693, 36.46562231576874], [-115.84934298477093, 36.46208485584182], [-115.84936974468494, 36.45854736529374], [-115.84939650370062, 36.455009914957145], [-115.84942325373315, 36.4514724542859], [-115.85401325496618, 36.45148281448253]]]}}]}